{"type": "Feature", "properties": {"name": "Atlanta"}, "geometry": {"type": "Polygon", "coordinates": [[[-84.504218, 33.723259999999996], [-84.50192799999999, 33.723386999999995], [-84.50214, 33.726756], [-84.50181599999999, 33.731642], [-84.499563, 33.73822], [-84.482449, 33.731291], [-84.479687, 33.729258], [-84.474594, 33.728187], [-84.46987999999999, 33.725581999999996], [-84.469056, 33.724278999999996], [-84.46449799999999, 33.722975999999996], [-84.464523, 33.725546], [-84.46356999999999, 33.72817], [-84.461028, 33.730152], [-84.465516, 33.733579999999996], [-84.46470599999999, 33.737439], [-84.456863, 33.739411], [-84.447028, 33.739348], [-84.446249, 33.744316999999995], [-84.440212, 33.744004], [-84.44005399999999, 33.744976], [-84.442557, 33.747686], [-84.434902, 33.747769999999996], [-84.434821, 33.751584], [-84.43380599999999, 33.751587], [-84.434759, 33.757159], [-84.434072, 33.763331], [-84.43329899999999, 33.765738], [-84.434607, 33.770823], [-84.44391999999999, 33.772768], [-84.455745, 33.779207], [-84.454448, 33.78339], [-84.448786, 33.785785], [-84.4413, 33.785658999999995], [-84.43724399999999, 33.788123], [-84.43688, 33.789142], [-84.441324, 33.796293999999996], [-84.443252, 33.798884], [-84.442691, 33.800439], [-84.44627899999999, 33.80056], [-84.44911599999999, 33.80102], [-84.454764, 33.806422999999995], [-84.463589, 33.818999999999996], [-84.458102, 33.821687], [-84.455029, 33.82172], [-84.45130499999999, 33.821014], [-84.448852, 33.823525], [-84.450876, 33.825374], [-84.44934599999999, 33.827528], [-84.45011699999999, 33.830132], [-84.44758999999999, 33.841744], [-84.448349, 33.84565], [-84.44561399999999, 33.845746], [-84.444752, 33.844975], [-84.422978, 33.852063], [-84.40897, 33.850026], [-84.404552, 33.860754], [-84.390754, 33.859364], [-84.382948, 33.855118], [-84.381151, 33.854757], [-84.37577999999999, 33.858339], [-84.372591, 33.865479], [-84.36408, 33.863495], [-84.362685, 33.862218], [-84.356269, 33.862715], [-84.352128, 33.860684], [-84.345337, 33.86015], [-84.341882, 33.860969], [-84.332782, 33.861399], [-84.323616, 33.862532], [-84.315696, 33.864943], [-84.302331, 33.86726], [-84.301276, 33.866873999999996], [-84.302112, 33.866074999999995], [-84.300877, 33.865462], [-84.301327, 33.858889], [-84.303512, 33.852945], [-84.30410499999999, 33.84965], [-84.302641, 33.849097], [-84.305767, 33.843371999999995], [-84.305955, 33.838823], [-84.302669, 33.838795], [-84.297281, 33.836413], [-84.287947, 33.837167], [-84.287627, 33.835018999999996], [-84.289163, 33.833217999999995], [-84.29042, 33.828165], [-84.292154, 33.825219], [-84.29256699999999, 33.822808], [-84.29043899999999, 33.822753999999996], [-84.29009099999999, 33.820757], [-84.288816, 33.820749], [-84.28869399999999, 33.813471], [-84.28749499999999, 33.812318], [-84.287218, 33.810452999999995], [-84.288967, 33.80997], [-84.289, 33.806598], [-84.288072, 33.802234], [-84.289332, 33.801561], [-84.289603, 33.798195], [-84.285765, 33.798207999999995], [-84.284207, 33.796256], [-84.28036999999999, 33.795435999999995], [-84.279912, 33.792209], [-84.278593, 33.790196], [-84.278594, 33.781563], [-84.278745, 33.779413999999996], [-84.27958199999999, 33.777353999999995], [-84.278959, 33.774964], [-84.278842, 33.771388], [-84.276296, 33.769765], [-84.27455499999999, 33.768053], [-84.275256, 33.76566], [-84.276494, 33.763643], [-84.280119, 33.761295], [-84.28750699999999, 33.760787], [-84.287536, 33.757278], [-84.28653299999999, 33.753453], [-84.284486, 33.750313999999996], [-84.285444, 33.746926], [-84.289974, 33.74632], [-84.287448, 33.738417999999996], [-84.291527, 33.73841], [-84.295135, 33.739115999999996], [-84.316228, 33.739404], [-84.32281499999999, 33.739219], [-84.34550899999999, 33.739216], [-84.34579599999999, 33.727246], [-84.346273, 33.723918999999995], [-84.34647, 33.715061], [-84.34914599999999, 33.714552], [-84.36484399999999, 33.715095999999996], [-84.366254, 33.712796], [-84.3731239, 33.7133244], [-84.372686, 33.707609999999995], [-84.37326399999999, 33.704983999999996], [-84.371364, 33.702743], [-84.36706699999999, 33.705158], [-84.365263, 33.702467999999996], [-84.364704, 33.700117], [-84.369102, 33.698918], [-84.362803, 33.688642], [-84.364662, 33.683555], [-84.366992, 33.679147], [-84.384998, 33.680079], [-84.387179, 33.680012999999995], [-84.387855, 33.671639], [-84.39167599999999, 33.671955], [-84.391269, 33.668898], [-84.390706, 33.656462999999995], [-84.392929, 33.651688], [-84.3956662, 33.6497764], [-84.39820069999999, 33.650889899999996], [-84.39858199999999, 33.6515342], [-84.40688589999999, 33.652835599999996], [-84.4068862, 33.6535772], [-84.40851459999999, 33.6537098], [-84.4086027, 33.6525617], [-84.4130764, 33.6553422], [-84.41213929999999, 33.6562246], [-84.4164784, 33.6584015], [-84.4298192, 33.658769899999996], [-84.43261179999999, 33.65898], [-84.43549, 33.6565444], [-84.4368686, 33.654986199999996], [-84.438335, 33.6544384], [-84.43868959999999, 33.653297699999996], [-84.4405577, 33.652121], [-84.4447575, 33.6518679], [-84.4475987, 33.6484275], [-84.4507197, 33.6451438], [-84.454878, 33.646527999999996], [-84.454326, 33.649221], [-84.451689, 33.649423999999996], [-84.451433, 33.666537999999996], [-84.452753, 33.666834], [-84.454325, 33.669483], [-84.45066, 33.671599], [-84.45090599999999, 33.683336], [-84.451516, 33.684236], [-84.453693, 33.684208999999996], [-84.453633, 33.686279], [-84.456518, 33.687388], [-84.471683, 33.690481], [-84.481522, 33.69001], [-84.483785, 33.688296], [-84.487539, 33.686002], [-84.48898899999999, 33.687445], [-84.491616, 33.685677999999996], [-84.49654799999999, 33.685563], [-84.498013, 33.683707], [-84.49967099999999, 33.683637], [-84.499747, 33.686211], [-84.500839, 33.688758], [-84.504075, 33.689710999999996], [-84.50118499999999, 33.692114], [-84.499409, 33.698454], [-84.49821, 33.703704], [-84.498621, 33.70765], [-84.502489, 33.715471], [-84.504218, 33.723259999999996]]]}}