{
  "type": "Feature",
  "properties": {
    "provider": "tesla",
    "name": "Miami, FL",
    "source": "tesla_robotaxi_app_fleet_areas",
    "sourceInternalName": "miami",
    "sourcePolygonCount": 1
  },
  "geometry": {
    "type": "Polygon",
    "coordinates": [
      [
        [
          -80.3369217,
          25.7611294
        ],
        [
          -80.3226395,
          25.7614193
        ],
        [
          -80.3213806,
          25.732029
        ],
        [
          -80.2579575,
          25.7345753
        ],
        [
          -80.2576904,
          25.7483654
        ],
        [
          -80.2581558,
          25.7637844
        ],
        [
          -80.2549973,
          25.7694664
        ],
        [
          -80.2557678,
          25.8038616
        ],
        [
          -80.2618332,
          25.8086452
        ],
        [
          -80.265358,
          25.8088703
        ],
        [
          -80.3036499,
          25.8079338
        ],
        [
          -80.3069077,
          25.809948
        ],
        [
          -80.3257828,
          25.8102207
        ],
        [
          -80.3256683,
          25.8059845
        ],
        [
          -80.3369827,
          25.8059692
        ],
        [
          -80.3716888,
          25.8055801
        ],
        [
          -80.370575,
          25.7601318
        ],
        [
          -80.3369217,
          25.7611294
        ]
      ]
    ]
  }
}
