{
  "type": "Feature",
  "properties": {
    "slug": "tampa",
    "name": "Tampa, FL",
    "raw_point_count": 21,
    "bbox": [
      -82.52436065673828,
      27.931560516357422,
      -82.4343032836914,
      28.026212692260742
    ],
    "fetched_at": "2026-08-30T04:08:47+00:00",
    "source": "owner-api.robotaxi_fleet_areas",
    "classification": "production_fleet_area_exposed_to_authenticated_riders_account"
  },
  "geometry": {
    "type": "Polygon",
    "coordinates": [
      [
        [
          -82.52410125732422,
          27.998117446899414
        ],
        [
          -82.52436065673828,
          27.972457885742188
        ],
        [
          -82.50601959228516,
          27.972095489501953
        ],
        [
          -82.50640869140625,
          27.931560516357422
        ],
        [
          -82.49382781982422,
          27.94420623779297
        ],
        [
          -82.4937744140625,
          27.94806671142578
        ],
        [
          -82.47652435302734,
          27.948034286499023
        ],
        [
          -82.47654724121094,
          27.954072952270508
        ],
        [
          -82.46467590332031,
          27.95395851135254
        ],
        [
          -82.4564437866211,
          27.95615577697754
        ],
        [
          -82.45185089111328,
          27.962661743164062
        ],
        [
          -82.45050048828125,
          27.96372413635254
        ],
        [
          -82.43431091308594,
          27.963462829589844
        ],
        [
          -82.4343032836914,
          27.981849670410156
        ],
        [
          -82.43844604492188,
          27.981916427612305
        ],
        [
          -82.4384765625,
          27.998050689697266
        ],
        [
          -82.4483413696289,
          27.998096466064453
        ],
        [
          -82.44854736328125,
          28.025598526000977
        ],
        [
          -82.517578125,
          28.026212692260742
        ],
        [
          -82.51763153076172,
          27.998083114624023
        ],
        [
          -82.52410125732422,
          27.998117446899414
        ]
      ]
    ]
  }
}
