{"type": "Feature", "properties": {"name": "Austin"}, "geometry": {"type": "Polygon", "coordinates": [[[-97.88902069999999, 30.174404499999998], [-97.87989239999999, 30.184241999999998], [-97.8753595, 30.1905395], [-97.87092039999999, 30.194408799999998], [-97.86787029999999, 30.2006326], [-97.8592302, 30.211795199999997], [-97.85166219999999, 30.2169784], [-97.84791109999999, 30.216978299999997], [-97.8417319, 30.2242331], [-97.8382759, 30.2239769], [-97.8384794, 30.2229085], [-97.8360232, 30.222638099999998], [-97.8290076, 30.229977899999998], [-97.82535949999999, 30.236865899999998], [-97.82334, 30.2386424], [-97.8186518, 30.2404366], [-97.82306779999999, 30.2420324], [-97.8188526, 30.246833199999998], [-97.81455799999999, 30.242250199999997], [-97.8105064, 30.2442176], [-97.8082067, 30.246104199999998], [-97.8072955, 30.249737999999997], [-97.80789779999999, 30.251343], [-97.81375419999999, 30.25895], [-97.8085983, 30.265386799999998], [-97.80793039999999, 30.268319299999998], [-97.80629309999999, 30.267503899999998], [-97.8014213, 30.274693799999998], [-97.7969418, 30.280685], [-97.794848, 30.2822444], [-97.7915522, 30.289942999999997], [-97.7893556, 30.2942866], [-97.78576299999999, 30.293875399999997], [-97.78418839999999, 30.2962679], [-97.7814138, 30.302290799999998], [-97.775882, 30.3075518], [-97.7729832, 30.309507099999998], [-97.7729028, 30.310800399999998], [-97.7756466, 30.3127364], [-97.7748403, 30.3153372], [-97.7757462, 30.3200278], [-97.78026179999999, 30.333658399999997], [-97.79395339999999, 30.3481332], [-97.7935254, 30.352037199999998], [-97.7941577, 30.3530737], [-97.7901533, 30.3587545], [-97.7923434, 30.3590226], [-97.79125409999999, 30.362581499999997], [-97.7901734, 30.3686346], [-97.7806174, 30.377222], [-97.77400259999999, 30.382382], [-97.77032439999999, 30.383692399999997], [-97.76640599999999, 30.3862746], [-97.76330399999999, 30.3898078], [-97.7636144, 30.391927499999998], [-97.7619627, 30.395189199999997], [-97.75395119999999, 30.3953189], [-97.7490511, 30.3945594], [-97.7452137, 30.3949599], [-97.7404849, 30.3947018], [-97.7406915, 30.397304], [-97.73661129999999, 30.403048799999997], [-97.73149699999999, 30.400547399999997], [-97.72888189999999, 30.404386199999998], [-97.7226498, 30.4077639], [-97.720314, 30.4099491], [-97.7110823, 30.411535699999998], [-97.7102982, 30.4158482], [-97.7050684, 30.4217648], [-97.7006993, 30.4192194], [-97.68058979999999, 30.4096849], [-97.67966489999999, 30.412987299999998], [-97.67454629999999, 30.4239388], [-97.6718848, 30.4248583], [-97.6685748, 30.4240711], [-97.6601395, 30.4194371], [-97.661431, 30.4170569], [-97.6630545, 30.4057987], [-97.6607957, 30.4050473], [-97.6564106, 30.4022527], [-97.6599174, 30.396804799999998], [-97.6622581, 30.395897599999998], [-97.6631742, 30.3941861], [-97.66042, 30.392003], [-97.65599089999999, 30.3895299], [-97.6608595, 30.381584999999998], [-97.6642925, 30.3826076], [-97.66434029999999, 30.380016899999998], [-97.6655067, 30.3787979], [-97.6676808, 30.3795877], [-97.6723371, 30.3751075], [-97.67514589999999, 30.3764564], [-97.6792772, 30.3691924], [-97.6815977, 30.366360099999998], [-97.6814644, 30.364562799999998], [-97.6860995, 30.357518799999998], [-97.67508939999999, 30.350953399999998], [-97.67971659999999, 30.3401806], [-97.6823197, 30.3376329], [-97.6802998, 30.3362458], [-97.67923859999999, 30.33192], [-97.6798869, 30.330486399999998], [-97.67744239999999, 30.3293242], [-97.669404, 30.324387599999998], [-97.66239159999999, 30.317876499999997], [-97.6600234, 30.3087973], [-97.6596836, 30.301821], [-97.66126179999999, 30.296427599999998], [-97.6616298, 30.291518999999997], [-97.6628568, 30.290030599999998], [-97.6642246, 30.2849461], [-97.6668637, 30.277649399999998], [-97.667712, 30.273701], [-97.670479, 30.265299499999998], [-97.6746604, 30.258408199999998], [-97.6786984, 30.2524154], [-97.68302659999999, 30.250349999999997], [-97.6890736, 30.2483231], [-97.68882669999999, 30.2428958], [-97.68302539999999, 30.233995], [-97.6819194, 30.231298], [-97.6826959, 30.2306937], [-97.68176559999999, 30.2277351], [-97.68244849999999, 30.224270299999997], [-97.6810963, 30.223718299999998], [-97.6822759, 30.217054599999997], [-97.6822036, 30.2098396], [-97.6831323, 30.197916199999998], [-97.6895423, 30.197924699999998], [-97.6921766, 30.1951231], [-97.6997049, 30.189093099999997], [-97.7090794, 30.1895083], [-97.71197459999999, 30.1884834], [-97.7189314, 30.1820262], [-97.7204162, 30.179425799999997], [-97.7210338, 30.1719878], [-97.7227118, 30.1669758], [-97.7192963, 30.1637591], [-97.71413919999999, 30.161896499999997], [-97.71288159999999, 30.158695299999998], [-97.71337989999999, 30.1559323], [-97.71175799999999, 30.155514099999998], [-97.70790129999999, 30.152672], [-97.7086866, 30.151659199999997], [-97.7022696, 30.146906599999998], [-97.70309669999999, 30.1457999], [-97.7021317, 30.143575499999997], [-97.70527849999999, 30.139875], [-97.7105313, 30.1365719], [-97.7183656, 30.1365086], [-97.7301358, 30.1418252], [-97.7315989, 30.1448224], [-97.7386877, 30.1457074], [-97.7447938, 30.1454116], [-97.7509011, 30.147555599999997], [-97.7543065, 30.150330399999998], [-97.7580294, 30.151435], [-97.7640467, 30.151040499999997], [-97.7727352, 30.1533293], [-97.77409019999999, 30.1541721], [-97.7766614, 30.157608399999997], [-97.7795774, 30.157089], [-97.7798981, 30.1578496], [-97.7833436, 30.1573928], [-97.78922829999999, 30.157355799999998], [-97.790009, 30.154859199999997], [-97.796712, 30.1366245], [-97.79760399999999, 30.136848599999997], [-97.8041722, 30.120175099999997], [-97.8048305, 30.119262499999998], [-97.807054, 30.1197867], [-97.809086, 30.1161405], [-97.8113173, 30.116284999999998], [-97.82479909999999, 30.1160474], [-97.8233303, 30.120760999999998], [-97.8318803, 30.1214911], [-97.8321519, 30.1244294], [-97.8316091, 30.1283544], [-97.8361678, 30.1286237], [-97.83639649999999, 30.1345846], [-97.8451417, 30.1344803], [-97.84378269999999, 30.133201999999997], [-97.84321, 30.1306552], [-97.8439152, 30.126571499999997], [-97.8465643, 30.125333899999998], [-97.84760639999999, 30.1286781], [-97.84982199999999, 30.131313199999997], [-97.8499192, 30.136902199999998], [-97.85609149999999, 30.1316204], [-97.8529812, 30.130416999999998], [-97.8530172, 30.1290831], [-97.8561381, 30.1296331], [-97.8569553, 30.1307682], [-97.85885119999999, 30.127747199999998], [-97.86312749999999, 30.133100499999998], [-97.8672751, 30.1392633], [-97.86836459999999, 30.142994899999998], [-97.87130739999999, 30.148155799999998], [-97.877415, 30.154124399999997], [-97.88829369999999, 30.1717427], [-97.88902069999999, 30.174404499999998]]]}}