{
  "type": "Feature",
  "properties": {},
  "geometry": {
    "type": "Polygon",
    "coordinates": [
      [
        [
          -117.2083906,
          32.8115466
        ],
        [
          -117.2005622,
          32.8076511
        ],
        [
          -117.1900045,
          32.7824408
        ],
        [
          -117.1723342,
          32.7811288
        ],
        [
          -117.1706539,
          32.7743466
        ],
        [
          -117.1650179,
          32.7721326
        ],
        [
          -117.1531503,
          32.7712612
        ],
        [
          -117.1150814,
          32.7813304
        ],
        [
          -117.1102557,
          32.7795273
        ],
        [
          -117.1116972,
          32.7721838
        ],
        [
          -117.1084799,
          32.7661224
        ],
        [
          -117.1065491,
          32.7498495
        ],
        [
          -117.1113865,
          32.7421527
        ],
        [
          -117.1088126,
          32.7334131
        ],
        [
          -117.1144004,
          32.7201615
        ],
        [
          -117.1087643,
          32.713084
        ],
        [
          -117.1136376,
          32.7109084
        ],
        [
          -117.1133634,
          32.7058353
        ],
        [
          -117.1090857,
          32.7044518
        ],
        [
          -117.1074767,
          32.6892607
        ],
        [
          -117.1141133,
          32.6808266
        ],
        [
          -117.1205714,
          32.6836746
        ],
        [
          -117.1225016,
          32.6805055
        ],
        [
          -117.129639,
          32.6862016
        ],
        [
          -117.141185,
          32.6908444
        ],
        [
          -117.1429724,
          32.6947551
        ],
        [
          -117.1474287,
          32.6945846
        ],
        [
          -117.1740002,
          32.7099246
        ],
        [
          -117.1747152,
          32.7134336
        ],
        [
          -117.1721416,
          32.7144161
        ],
        [
          -117.1758591,
          32.7151579
        ],
        [
          -117.1719748,
          32.7161905
        ],
        [
          -117.1723205,
          32.7225862
        ],
        [
          -117.1761573,
          32.7255332
        ],
        [
          -117.1813285,
          32.7240095
        ],
        [
          -117.1861423,
          32.7255932
        ],
        [
          -117.2155253,
          32.7249109
        ],
        [
          -117.2289298,
          32.7201992
        ],
        [
          -117.227905,
          32.7158184
        ],
        [
          -117.2358881,
          32.7128608
        ],
        [
          -117.2368413,
          32.7110562
        ],
        [
          -117.2346846,
          32.7100337
        ],
        [
          -117.2380684,
          32.7045995
        ],
        [
          -117.2573711,
          32.7069552
        ],
        [
          -117.2599214,
          32.7201184
        ],
        [
          -117.2566814,
          32.7525019
        ],
        [
          -117.2379626,
          32.7560897
        ],
        [
          -117.2360205,
          32.7590357
        ],
        [
          -117.257719,
          32.7862559
        ],
        [
          -117.2596493,
          32.7879488
        ],
        [
          -117.2624613,
          32.7865163
        ],
        [
          -117.2656549,
          32.7969935
        ],
        [
          -117.2376781,
          32.8042453
        ],
        [
          -117.2310413,
          32.8029535
        ],
        [
          -117.2234753,
          32.8087623
        ],
        [
          -117.2147533,
          32.807771
        ],
        [
          -117.2083906,
          32.8115466
        ]
      ]
    ]
  }
}
