{
  "type": "Feature",
  "properties": {
    "name": "Layer 1"
  },
  "geometry": {
    "type": "Polygon",
    "coordinates": [
      [
        [
          -95.3724633,
          29.8144601
        ],
        [
          -95.375355,
          29.816765
        ],
        [
          -95.382395,
          29.816839
        ],
        [
          -95.399239,
          29.816662
        ],
        [
          -95.399261,
          29.818592
        ],
        [
          -95.402909,
          29.818876
        ],
        [
          -95.408145,
          29.818214
        ],
        [
          -95.409806,
          29.817876
        ],
        [
          -95.4208088,
          29.817872
        ],
        [
          -95.4208264,
          29.8168934
        ],
        [
          -95.4226957,
          29.8165468
        ],
        [
          -95.4225546,
          29.8155709
        ],
        [
          -95.423043,
          29.814249
        ],
        [
          -95.4228571,
          29.8132736
        ],
        [
          -95.4205874,
          29.8133053
        ],
        [
          -95.420583,
          29.8124908
        ],
        [
          -95.4151611,
          29.8124663
        ],
        [
          -95.4151886,
          29.8107652
        ],
        [
          -95.4228474,
          29.8100544
        ],
        [
          -95.4227368,
          29.8043232
        ],
        [
          -95.4251234,
          29.8022963
        ],
        [
          -95.4230947,
          29.7983234
        ],
        [
          -95.4230342,
          29.798003
        ],
        [
          -95.4238308,
          29.7975659
        ],
        [
          -95.4234908,
          29.7949032
        ],
        [
          -95.4279316,
          29.7946853
        ],
        [
          -95.4278861,
          29.7922142
        ],
        [
          -95.4259145,
          29.7923248
        ],
        [
          -95.4256379,
          29.7896266
        ],
        [
          -95.4224643,
          29.7897271
        ],
        [
          -95.4219355,
          29.7889505
        ],
        [
          -95.4180894,
          29.789418
        ],
        [
          -95.4196115,
          29.7843907
        ],
        [
          -95.4316109,
          29.7839166
        ],
        [
          -95.433397,
          29.783638
        ],
        [
          -95.4336639,
          29.7821419
        ],
        [
          -95.4309599,
          29.7803149
        ],
        [
          -95.4280538,
          29.7788665
        ],
        [
          -95.4245511,
          29.77892
        ],
        [
          -95.4244572,
          29.7776818
        ],
        [
          -95.4251061,
          29.7768378
        ],
        [
          -95.4250934,
          29.7754487
        ],
        [
          -95.4258333,
          29.7751944
        ],
        [
          -95.4250621,
          29.7743357
        ],
        [
          -95.4250662,
          29.7736671
        ],
        [
          -95.4235546,
          29.7737211
        ],
        [
          -95.4234253,
          29.7721909
        ],
        [
          -95.4227518,
          29.7720212
        ],
        [
          -95.4227021,
          29.7716229
        ],
        [
          -95.422363,
          29.7713581
        ],
        [
          -95.4218832,
          29.7687057
        ],
        [
          -95.4212078,
          29.7686948
        ],
        [
          -95.4211254,
          29.7639811
        ],
        [
          -95.4202957,
          29.7639189
        ],
        [
          -95.4202464,
          29.7626349
        ],
        [
          -95.419345,
          29.762658
        ],
        [
          -95.4193734,
          29.7611298
        ],
        [
          -95.4161392,
          29.7607595
        ],
        [
          -95.416287,
          29.7576769
        ],
        [
          -95.4153088,
          29.7569634
        ],
        [
          -95.4160743,
          29.7546073
        ],
        [
          -95.4150689,
          29.7538706
        ],
        [
          -95.415613,
          29.7510471
        ],
        [
          -95.4189514,
          29.7505325
        ],
        [
          -95.4235018,
          29.7495051
        ],
        [
          -95.4247436,
          29.7490807
        ],
        [
          -95.4246229,
          29.747444
        ],
        [
          -95.426908,
          29.7474567
        ],
        [
          -95.4290862,
          29.7465375
        ],
        [
          -95.428924,
          29.7436414
        ],
        [
          -95.4270312,
          29.7424756
        ],
        [
          -95.4272758,
          29.7350702
        ],
        [
          -95.4269173,
          29.7306433
        ],
        [
          -95.4288646,
          29.7304115
        ],
        [
          -95.4284501,
          29.7272997
        ],
        [
          -95.4282372,
          29.7243069
        ],
        [
          -95.4282325,
          29.7152725
        ],
        [
          -95.4280157,
          29.7076001
        ],
        [
          -95.427995,
          29.696775
        ],
        [
          -95.4272471,
          29.6938529
        ],
        [
          -95.4281285,
          29.6905693
        ],
        [
          -95.4277882,
          29.6803355
        ],
        [
          -95.4255985,
          29.6787477
        ],
        [
          -95.4261684,
          29.670596
        ],
        [
          -95.4185474,
          29.6721556
        ],
        [
          -95.4116498,
          29.6723645
        ],
        [
          -95.4101222,
          29.6719903
        ],
        [
          -95.4039863,
          29.672141
        ],
        [
          -95.3991904,
          29.6722903
        ],
        [
          -95.3962791,
          29.6695385
        ],
        [
          -95.3949531,
          29.668305
        ],
        [
          -95.3929835,
          29.667521
        ],
        [
          -95.3914311,
          29.6673203
        ],
        [
          -95.3815943,
          29.6673954
        ],
        [
          -95.3807927,
          29.6703479
        ],
        [
          -95.3808775,
          29.675535
        ],
        [
          -95.3809456,
          29.6762981
        ],
        [
          -95.380811,
          29.6780649
        ],
        [
          -95.3805548,
          29.678847
        ],
        [
          -95.3802405,
          29.679333
        ],
        [
          -95.3789843,
          29.6832793
        ],
        [
          -95.3780165,
          29.6872154
        ],
        [
          -95.3775372,
          29.6892288
        ],
        [
          -95.3765247,
          29.6938118
        ],
        [
          -95.3752633,
          29.6972513
        ],
        [
          -95.3741339,
          29.7005778
        ],
        [
          -95.3726169,
          29.7052634
        ],
        [
          -95.3745955,
          29.7061236
        ],
        [
          -95.3751329,
          29.706659
        ],
        [
          -95.3768257,
          29.7105865
        ],
        [
          -95.3773838,
          29.7125979
        ],
        [
          -95.3776576,
          29.7166312
        ],
        [
          -95.3773236,
          29.7180159
        ],
        [
          -95.3767467,
          29.7190412
        ],
        [
          -95.376854,
          29.7193247
        ],
        [
          -95.3759677,
          29.7225706
        ],
        [
          -95.3750964,
          29.7244059
        ],
        [
          -95.3743116,
          29.7254196
        ],
        [
          -95.3693108,
          29.7318483
        ],
        [
          -95.3675034,
          29.730788
        ],
        [
          -95.3594911,
          29.7412329
        ],
        [
          -95.3556286,
          29.7388483
        ],
        [
          -95.3519755,
          29.7373997
        ],
        [
          -95.3491594,
          29.7358392
        ],
        [
          -95.3456992,
          29.7334026
        ],
        [
          -95.3442132,
          29.7322144
        ],
        [
          -95.3410551,
          29.7297982
        ],
        [
          -95.3367884,
          29.7272152
        ],
        [
          -95.335694,
          29.7283336
        ],
        [
          -95.334409,
          29.7291502
        ],
        [
          -95.3339277,
          29.7296001
        ],
        [
          -95.3334779,
          29.7303972
        ],
        [
          -95.3331779,
          29.7311559
        ],
        [
          -95.3316649,
          29.7347228
        ],
        [
          -95.3315671,
          29.7354739
        ],
        [
          -95.331787,
          29.736643
        ],
        [
          -95.3315614,
          29.7374634
        ],
        [
          -95.3301023,
          29.7370099
        ],
        [
          -95.3280139,
          29.7416401
        ],
        [
          -95.3266492,
          29.7434058
        ],
        [
          -95.3250905,
          29.7473184
        ],
        [
          -95.3247217,
          29.7472215
        ],
        [
          -95.3231257,
          29.7506084
        ],
        [
          -95.3230152,
          29.7510051
        ],
        [
          -95.3234252,
          29.7511852
        ],
        [
          -95.3224394,
          29.7526006
        ],
        [
          -95.3234107,
          29.7531168
        ],
        [
          -95.3213208,
          29.7567342
        ],
        [
          -95.3280629,
          29.7603511
        ],
        [
          -95.3272031,
          29.7627081
        ],
        [
          -95.3272349,
          29.7652388
        ],
        [
          -95.3230425,
          29.7652567
        ],
        [
          -95.3230771,
          29.7671879
        ],
        [
          -95.3215492,
          29.7672538
        ],
        [
          -95.3215126,
          29.7678721
        ],
        [
          -95.3197042,
          29.7678709
        ],
        [
          -95.3197175,
          29.7681074
        ],
        [
          -95.321025,
          29.768203
        ],
        [
          -95.3209986,
          29.7706811
        ],
        [
          -95.3203375,
          29.7703019
        ],
        [
          -95.3201809,
          29.7706721
        ],
        [
          -95.3209576,
          29.7711137
        ],
        [
          -95.3210384,
          29.7731295
        ],
        [
          -95.3245236,
          29.7729516
        ],
        [
          -95.3249796,
          29.7738343
        ],
        [
          -95.3241231,
          29.774064
        ],
        [
          -95.3242026,
          29.77605
        ],
        [
          -95.3204188,
          29.7761518
        ],
        [
          -95.3150929,
          29.7763084
        ],
        [
          -95.3156004,
          29.778002
        ],
        [
          -95.3157085,
          29.7799194
        ],
        [
          -95.3156772,
          29.7838353
        ],
        [
          -95.3157248,
          29.7878399
        ],
        [
          -95.3015864,
          29.7939293
        ],
        [
          -95.3016005,
          29.796043
        ],
        [
          -95.2977284,
          29.7975009
        ],
        [
          -95.2945174,
          29.7989214
        ],
        [
          -95.2945434,
          29.8008824
        ],
        [
          -95.2944423,
          29.8037212
        ],
        [
          -95.2889615,
          29.8038119
        ],
        [
          -95.2889668,
          29.8050012
        ],
        [
          -95.2916269,
          29.8049697
        ],
        [
          -95.2925127,
          29.8048093
        ],
        [
          -95.2951242,
          29.8049103
        ],
        [
          -95.2968301,
          29.8054133
        ],
        [
          -95.2984301,
          29.8061951
        ],
        [
          -95.3016186,
          29.8080123
        ],
        [
          -95.3021933,
          29.8082952
        ],
        [
          -95.3051152,
          29.8099298
        ],
        [
          -95.3227891,
          29.8100288
        ],
        [
          -95.330131,
          29.8091728
        ],
        [
          -95.3333923,
          29.8092285
        ],
        [
          -95.3340774,
          29.8129699
        ],
        [
          -95.3384056,
          29.8130502
        ],
        [
          -95.3402247,
          29.8100356
        ],
        [
          -95.3505534,
          29.8135033
        ],
        [
          -95.3514694,
          29.8160987
        ],
        [
          -95.3532899,
          29.8160718
        ],
        [
          -95.3540684,
          29.8146247
        ],
        [
          -95.3608717,
          29.8145758
        ],
        [
          -95.3724633,
          29.8144601
        ]
      ]
    ]
  }
}
