{
  "type": "Feature",
  "properties": {},
  "geometry": {
    "type": "Polygon",
    "coordinates": [
      [
        [
          -82.4052624,
          28.0286262
        ],
        [
          -82.4047032,
          28.0255928
        ],
        [
          -82.4008932,
          28.0242327
        ],
        [
          -82.3924913,
          28.0258886
        ],
        [
          -82.3932315,
          27.9869797
        ],
        [
          -82.4005047,
          27.9816127
        ],
        [
          -82.4007681,
          27.9647636
        ],
        [
          -82.4137453,
          27.9639647
        ],
        [
          -82.4118716,
          27.956038
        ],
        [
          -82.4238984,
          27.9543932
        ],
        [
          -82.4286834,
          27.9508701
        ],
        [
          -82.4338325,
          27.951393
        ],
        [
          -82.4361343,
          27.9485356
        ],
        [
          -82.4430012,
          27.9488958
        ],
        [
          -82.4434067,
          27.9433353
        ],
        [
          -82.4544855,
          27.9403387
        ],
        [
          -82.4582983,
          27.9410257
        ],
        [
          -82.4661438,
          27.9356584
        ],
        [
          -82.4674917,
          27.9327974
        ],
        [
          -82.4724565,
          27.9318027
        ],
        [
          -82.4898719,
          27.9193869
        ],
        [
          -82.5068513,
          27.9196126
        ],
        [
          -82.5071268,
          27.9442239
        ],
        [
          -82.510751,
          27.9444046
        ],
        [
          -82.5115047,
          27.9465982
        ],
        [
          -82.5137964,
          27.9461003
        ],
        [
          -82.5139944,
          27.9444155
        ],
        [
          -82.5336448,
          27.9446502
        ],
        [
          -82.5357362,
          27.9463426
        ],
        [
          -82.5412697,
          27.9461927
        ],
        [
          -82.5463948,
          27.9522773
        ],
        [
          -82.5465522,
          27.96003
        ],
        [
          -82.5528199,
          27.9666232
        ],
        [
          -82.5572072,
          27.9668064
        ],
        [
          -82.5474698,
          27.9684588
        ],
        [
          -82.5462924,
          27.9760374
        ],
        [
          -82.5491498,
          27.9770579
        ],
        [
          -82.5498331,
          27.9955929
        ],
        [
          -82.5622292,
          27.9968139
        ],
        [
          -82.561595,
          28.0111301
        ],
        [
          -82.5310691,
          28.0110275
        ],
        [
          -82.5238773,
          27.9975272
        ],
        [
          -82.516829,
          27.9949766
        ],
        [
          -82.5042276,
          27.9971242
        ],
        [
          -82.4548122,
          27.997295
        ],
        [
          -82.4551684,
          28.0031922
        ],
        [
          -82.4523037,
          28.0038563
        ],
        [
          -82.4507628,
          28.0072201
        ],
        [
          -82.4506865,
          28.0249053
        ],
        [
          -82.4342803,
          28.0245133
        ],
        [
          -82.4293016,
          28.028707
        ],
        [
          -82.4052624,
          28.0286262
        ]
      ]
    ]
  }
}
