{
  "type": "Feature",
  "properties": {
    "provider": "waymo",
    "name": "miami_2026_drivable_plus_fwy_no_airport+miami_plus_hard_rock_no_airport_no_doral",
    "source": "waymo_android_app_get_account_status",
    "sourceInternalName": "miami_2026_drivable_plus_fwy_no_airport+miami_plus_hard_rock_no_airport_no_doral",
    "sourcePolygonCount": 1,
    "serviceRegionId": 11
  },
  "geometry": {
    "type": "Polygon",
    "coordinates": [
      [
        [
          -80.186554,
          25.757997
        ],
        [
          -80.181125,
          25.770094
        ],
        [
          -80.1812656,
          25.7740251
        ],
        [
          -80.1772834,
          25.7724503
        ],
        [
          -80.158486,
          25.764976
        ],
        [
          -80.1447205,
          25.7656813
        ],
        [
          -80.144689,
          25.7659273
        ],
        [
          -80.1446671,
          25.7660845
        ],
        [
          -80.144615,
          25.7664539
        ],
        [
          -80.144556,
          25.7668826
        ],
        [
          -80.1445284,
          25.7670821
        ],
        [
          -80.1443849,
          25.7680401
        ],
        [
          -80.1432768,
          25.7716397
        ],
        [
          -80.1429512,
          25.772686
        ],
        [
          -80.1368771,
          25.7665414
        ],
        [
          -80.129862,
          25.763718
        ],
        [
          -80.12613,
          25.795786
        ],
        [
          -80.1241106,
          25.8007845
        ],
        [
          -80.1208452,
          25.808841
        ],
        [
          -80.1194842,
          25.8344182
        ],
        [
          -80.1183617,
          25.855359
        ],
        [
          -80.1203992,
          25.8892928
        ],
        [
          -80.120635,
          25.8932331
        ],
        [
          -80.1206779,
          25.8957678
        ],
        [
          -80.1207246,
          25.8983588
        ],
        [
          -80.1208301,
          25.903882
        ],
        [
          -80.1209121,
          25.9085887
        ],
        [
          -80.1210046,
          25.9137066
        ],
        [
          -80.1211222,
          25.9197413
        ],
        [
          -80.121229,
          25.9250373
        ],
        [
          -80.1213226,
          25.9311366
        ],
        [
          -80.1207289,
          25.9326103
        ],
        [
          -80.1207131,
          25.9358805
        ],
        [
          -80.1188301,
          25.9542768
        ],
        [
          -80.125509,
          25.954424
        ],
        [
          -80.128558,
          25.955266
        ],
        [
          -80.128973,
          25.955534
        ],
        [
          -80.1302053,
          25.9556749
        ],
        [
          -80.132414,
          25.955729
        ],
        [
          -80.13879,
          25.954075
        ],
        [
          -80.138798,
          25.953838
        ],
        [
          -80.141301,
          25.953549
        ],
        [
          -80.142215,
          25.953761
        ],
        [
          -80.143894,
          25.954745
        ],
        [
          -80.1447726,
          25.955117
        ],
        [
          -80.145606,
          25.955295
        ],
        [
          -80.146534,
          25.955382
        ],
        [
          -80.1466253,
          25.9596903
        ],
        [
          -80.146502,
          25.963825
        ],
        [
          -80.1470211,
          25.9642605
        ],
        [
          -80.1466852,
          25.9658624
        ],
        [
          -80.1469571,
          25.9661859
        ],
        [
          -80.1476135,
          25.9662367
        ],
        [
          -80.1478987,
          25.9659969
        ],
        [
          -80.1480317,
          25.9656693
        ],
        [
          -80.147993,
          25.9652741
        ],
        [
          -80.1481153,
          25.9640012
        ],
        [
          -80.1487933,
          25.9638036
        ],
        [
          -80.1495787,
          25.9637603
        ],
        [
          -80.161174,
          25.9632516
        ],
        [
          -80.1637233,
          25.9636355
        ],
        [
          -80.1666588,
          25.9647911
        ],
        [
          -80.171857,
          25.965077
        ],
        [
          -80.180837,
          25.965126
        ],
        [
          -80.1843466,
          25.9643428
        ],
        [
          -80.1860607,
          25.9630405
        ],
        [
          -80.18985,
          25.959868
        ],
        [
          -80.192607,
          25.958344
        ],
        [
          -80.205117,
          25.957688
        ],
        [
          -80.20546,
          25.973257
        ],
        [
          -80.2264613,
          25.9726533
        ],
        [
          -80.230072,
          25.9725659
        ],
        [
          -80.2303312,
          25.9725987
        ],
        [
          -80.2309206,
          25.9729696
        ],
        [
          -80.231722,
          25.9732519
        ],
        [
          -80.2323779,
          25.9733942
        ],
        [
          -80.2356527,
          25.9731979
        ],
        [
          -80.2372659,
          25.9731609
        ],
        [
          -80.2398988,
          25.972934
        ],
        [
          -80.2424753,
          25.9728461
        ],
        [
          -80.2459228,
          25.9727861
        ],
        [
          -80.2465546,
          25.972902
        ],
        [
          -80.2466375,
          25.9741303
        ],
        [
          -80.2471736,
          25.9741117
        ],
        [
          -80.2481696,
          25.9740526
        ],
        [
          -80.2486252,
          25.9738792
        ],
        [
          -80.2489167,
          25.9734329
        ],
        [
          -80.2487945,
          25.9727035
        ],
        [
          -80.2484566,
          25.9725436
        ],
        [
          -80.2482278,
          25.9725084
        ],
        [
          -80.247143,
          25.9725253
        ],
        [
          -80.2471372,
          25.9719229
        ],
        [
          -80.2471815,
          25.9662346
        ],
        [
          -80.2469912,
          25.9614745
        ],
        [
          -80.2483136,
          25.9615179
        ],
        [
          -80.2544189,
          25.9613389
        ],
        [
          -80.2574734,
          25.9612288
        ],
        [
          -80.262026,
          25.9613155
        ],
        [
          -80.2619955,
          25.9602899
        ],
        [
          -80.2623943,
          25.9602658
        ],
        [
          -80.2622628,
          25.9545236
        ],
        [
          -80.2620656,
          25.9473887
        ],
        [
          -80.261642,
          25.9400416
        ],
        [
          -80.260573,
          25.9400866
        ],
        [
          -80.252913,
          25.9402961
        ],
        [
          -80.2474282,
          25.9406633
        ],
        [
          -80.2460777,
          25.9406662
        ],
        [
          -80.2452766,
          25.9188186
        ],
        [
          -80.2451048,
          25.9153312
        ],
        [
          -80.243809,
          25.8750877
        ],
        [
          -80.242051,
          25.8266991
        ],
        [
          -80.2417832,
          25.8172086
        ],
        [
          -80.251484,
          25.816965
        ],
        [
          -80.265734,
          25.81633
        ],
        [
          -80.2661036,
          25.8089559
        ],
        [
          -80.265036,
          25.8083941
        ],
        [
          -80.2649014,
          25.8071429
        ],
        [
          -80.2656507,
          25.806133
        ],
        [
          -80.2656037,
          25.8010237
        ],
        [
          -80.2655727,
          25.7962795
        ],
        [
          -80.2660094,
          25.795663
        ],
        [
          -80.2658655,
          25.7917789
        ],
        [
          -80.2658654,
          25.791779
        ],
        [
          -80.2658641,
          25.7905612
        ],
        [
          -80.2658698,
          25.7863044
        ],
        [
          -80.2682865,
          25.7847811
        ],
        [
          -80.2725912,
          25.7841158
        ],
        [
          -80.2765768,
          25.7851404
        ],
        [
          -80.2790417,
          25.7856627
        ],
        [
          -80.2810029,
          25.7856134
        ],
        [
          -80.2833189,
          25.7855869
        ],
        [
          -80.2852631,
          25.7855062
        ],
        [
          -80.2865638,
          25.7854734
        ],
        [
          -80.2882543,
          25.7854203
        ],
        [
          -80.288709,
          25.785363
        ],
        [
          -80.2887594,
          25.7853609
        ],
        [
          -80.2889638,
          25.7853309
        ],
        [
          -80.2906831,
          25.7851142
        ],
        [
          -80.297673,
          25.7848619
        ],
        [
          -80.3033997,
          25.7846558
        ],
        [
          -80.3101808,
          25.7821104
        ],
        [
          -80.3152103,
          25.7814221
        ],
        [
          -80.3163205,
          25.7816084
        ],
        [
          -80.3176828,
          25.7830415
        ],
        [
          -80.3229498,
          25.7831032
        ],
        [
          -80.323189,
          25.7800515
        ],
        [
          -80.3218933,
          25.7791052
        ],
        [
          -80.321602,
          25.7767665
        ],
        [
          -80.3212357,
          25.7737447
        ],
        [
          -80.3215585,
          25.7727413
        ],
        [
          -80.3223458,
          25.7717271
        ],
        [
          -80.3223607,
          25.769593
        ],
        [
          -80.3208865,
          25.7695318
        ],
        [
          -80.3208151,
          25.7664302
        ],
        [
          -80.3211108,
          25.7648004
        ],
        [
          -80.322628,
          25.7644557
        ],
        [
          -80.3229713,
          25.7629097
        ],
        [
          -80.3235047,
          25.7626679
        ],
        [
          -80.3233792,
          25.7618776
        ],
        [
          -80.3229136,
          25.7614267
        ],
        [
          -80.3219524,
          25.7598687
        ],
        [
          -80.3215885,
          25.759089
        ],
        [
          -80.3212583,
          25.7581742
        ],
        [
          -80.3208089,
          25.756033
        ],
        [
          -80.3204478,
          25.7548109
        ],
        [
          -80.3203457,
          25.7520173
        ],
        [
          -80.3204708,
          25.7507988
        ],
        [
          -80.320974,
          25.7499978
        ],
        [
          -80.3213855,
          25.7493888
        ],
        [
          -80.3215135,
          25.7479355
        ],
        [
          -80.3203399,
          25.7479091
        ],
        [
          -80.3200448,
          25.7422997
        ],
        [
          -80.3199084,
          25.7389095
        ],
        [
          -80.3200614,
          25.7385319
        ],
        [
          -80.3198315,
          25.7369862
        ],
        [
          -80.3196623,
          25.7360526
        ],
        [
          -80.319331,
          25.7344657
        ],
        [
          -80.3193321,
          25.7332846
        ],
        [
          -80.3194521,
          25.7326451
        ],
        [
          -80.3191829,
          25.732448
        ],
        [
          -80.3191084,
          25.7262354
        ],
        [
          -80.3191766,
          25.7241473
        ],
        [
          -80.3191245,
          25.7187052
        ],
        [
          -80.3194471,
          25.7179105
        ],
        [
          -80.3196155,
          25.7178804
        ],
        [
          -80.3195614,
          25.7175004
        ],
        [
          -80.3191894,
          25.7173101
        ],
        [
          -80.3187774,
          25.7160418
        ],
        [
          -80.318451,
          25.7147739
        ],
        [
          -80.3183085,
          25.7132243
        ],
        [
          -80.3181538,
          25.7110558
        ],
        [
          -80.3180252,
          25.7090188
        ],
        [
          -80.3179483,
          25.707039
        ],
        [
          -80.3178823,
          25.7057612
        ],
        [
          -80.3181805,
          25.7034527
        ],
        [
          -80.3185616,
          25.7031628
        ],
        [
          -80.3185131,
          25.7027914
        ],
        [
          -80.3182502,
          25.7024868
        ],
        [
          -80.3179551,
          25.7018462
        ],
        [
          -80.3177372,
          25.7009814
        ],
        [
          -80.3175566,
          25.698224
        ],
        [
          -80.3174908,
          25.6962088
        ],
        [
          -80.3175263,
          25.6940906
        ],
        [
          -80.317472,
          25.6915157
        ],
        [
          -80.3175291,
          25.68919
        ],
        [
          -80.3176559,
          25.6887752
        ],
        [
          -80.3184084,
          25.6887329
        ],
        [
          -80.3189254,
          25.688723
        ],
        [
          -80.3188782,
          25.6880918
        ],
        [
          -80.3186189,
          25.6865996
        ],
        [
          -80.3163157,
          25.6866801
        ],
        [
          -80.3161103,
          25.688141
        ],
        [
          -80.315852,
          25.6883988
        ],
        [
          -80.2981308,
          25.6889594
        ],
        [
          -80.2894206,
          25.6892803
        ],
        [
          -80.2863828,
          25.6890679
        ],
        [
          -80.2853181,
          25.6884397
        ],
        [
          -80.28504,
          25.6880768
        ],
        [
          -80.2845476,
          25.6881734
        ],
        [
          -80.2845702,
          25.6893354
        ],
        [
          -80.2693827,
          25.689755
        ],
        [
          -80.2598517,
          25.7055098
        ],
        [
          -80.251488,
          25.705358
        ],
        [
          -80.245404,
          25.704041
        ],
        [
          -80.2448627,
          25.711987
        ],
        [
          -80.244687,
          25.7145628
        ],
        [
          -80.2412237,
          25.7207708
        ],
        [
          -80.2362077,
          25.7249771
        ],
        [
          -80.2333632,
          25.7278102
        ],
        [
          -80.2324997,
          25.7314745
        ],
        [
          -80.2223411,
          25.7362656
        ],
        [
          -80.2209874,
          25.7375138
        ],
        [
          -80.2189733,
          25.7393979
        ],
        [
          -80.2169364,
          25.739584
        ],
        [
          -80.2148998,
          25.7380153
        ],
        [
          -80.2134217,
          25.7386635
        ],
        [
          -80.194321,
          25.752123
        ],
        [
          -80.186554,
          25.757997
        ]
      ]
    ]
  }
}
