{
  "type": "Feature",
  "properties": {},
  "geometry": {
    "type": "Polygon",
    "coordinates": [
      [
        [
          -122.4933832,
          37.682408
        ],
        [
          -122.4935866,
          37.6847274
        ],
        [
          -122.4938453,
          37.6852658
        ],
        [
          -122.4948657,
          37.687945
        ],
        [
          -122.4951542,
          37.6889265
        ],
        [
          -122.4956857,
          37.6906462
        ],
        [
          -122.4957659,
          37.6913899
        ],
        [
          -122.4964649,
          37.6935143
        ],
        [
          -122.4965253,
          37.6961269
        ],
        [
          -122.499143,
          37.703838
        ],
        [
          -122.4993021,
          37.70603
        ],
        [
          -122.4992113,
          37.7144749
        ],
        [
          -122.5060341,
          37.7179309
        ],
        [
          -122.5073268,
          37.7235641
        ],
        [
          -122.5076434,
          37.7268811
        ],
        [
          -122.5084582,
          37.7353336
        ],
        [
          -122.5093173,
          37.7447833
        ],
        [
          -122.5114541,
          37.7552842
        ],
        [
          -122.5129338,
          37.7648306
        ],
        [
          -122.5136863,
          37.7774466
        ],
        [
          -122.5145344,
          37.7780534
        ],
        [
          -122.5146659,
          37.7791007
        ],
        [
          -122.5151132,
          37.7795697
        ],
        [
          -122.5148123,
          37.7812576
        ],
        [
          -122.514056,
          37.7816372
        ],
        [
          -122.5135543,
          37.7829516
        ],
        [
          -122.5131426,
          37.7829988
        ],
        [
          -122.5129285,
          37.7840779
        ],
        [
          -122.5112036,
          37.7847279
        ],
        [
          -122.510944,
          37.7846683
        ],
        [
          -122.5097901,
          37.7853392
        ],
        [
          -122.5098534,
          37.7858996
        ],
        [
          -122.5096093,
          37.7860189
        ],
        [
          -122.5092172,
          37.7858186
        ],
        [
          -122.5081226,
          37.7862756
        ],
        [
          -122.507201,
          37.7874168
        ],
        [
          -122.506418,
          37.7878681
        ],
        [
          -122.5061274,
          37.7882936
        ],
        [
          -122.5014306,
          37.7881136
        ],
        [
          -122.4996753,
          37.7887177
        ],
        [
          -122.4961187,
          37.7876197
        ],
        [
          -122.4946184,
          37.7882217
        ],
        [
          -122.4916252,
          37.7882719
        ],
        [
          -122.4898574,
          37.7895249
        ],
        [
          -122.4869937,
          37.7898688
        ],
        [
          -122.4850092,
          37.7917981
        ],
        [
          -122.4844953,
          37.7928067
        ],
        [
          -122.4838641,
          37.7940989
        ],
        [
          -122.4823634,
          37.7971306
        ],
        [
          -122.481913,
          37.7987027
        ],
        [
          -122.4805835,
          37.800789
        ],
        [
          -122.4802129,
          37.8018093
        ],
        [
          -122.4791961,
          37.8045923
        ],
        [
          -122.4785869,
          37.8078755
        ],
        [
          -122.4782459,
          37.8087275
        ],
        [
          -122.4780737,
          37.8109966
        ],
        [
          -122.4771777,
          37.8111818
        ],
        [
          -122.4764803,
          37.8110202
        ],
        [
          -122.4759474,
          37.8098323
        ],
        [
          -122.4747489,
          37.8093449
        ],
        [
          -122.4735702,
          37.8092822
        ],
        [
          -122.4707662,
          37.8087092
        ],
        [
          -122.4700181,
          37.8095491
        ],
        [
          -122.4693689,
          37.8092785
        ],
        [
          -122.468704,
          37.8071624
        ],
        [
          -122.4629598,
          37.8052076
        ],
        [
          -122.4526804,
          37.8068643
        ],
        [
          -122.4514322,
          37.8066426
        ],
        [
          -122.4484889,
          37.8071036
        ],
        [
          -122.4474262,
          37.807582
        ],
        [
          -122.4418396,
          37.8087952
        ],
        [
          -122.4371412,
          37.8093649
        ],
        [
          -122.4301755,
          37.8098172
        ],
        [
          -122.4206385,
          37.8120789
        ],
        [
          -122.4192623,
          37.8121959
        ],
        [
          -122.4148975,
          37.8095263
        ],
        [
          -122.413549,
          37.8095681
        ],
        [
          -122.4130514,
          37.8106696
        ],
        [
          -122.4096492,
          37.8119643
        ],
        [
          -122.4061674,
          37.8102488
        ],
        [
          -122.4042772,
          37.8090738
        ],
        [
          -122.4008975,
          37.8077666
        ],
        [
          -122.4003489,
          37.8073424
        ],
        [
          -122.3983937,
          37.8047858
        ],
        [
          -122.3942276,
          37.8003018
        ],
        [
          -122.3913503,
          37.7963083
        ],
        [
          -122.385127,
          37.7900501
        ],
        [
          -122.384342,
          37.7875361
        ],
        [
          -122.3842084,
          37.7858214
        ],
        [
          -122.3846093,
          37.7829743
        ],
        [
          -122.3845369,
          37.7746363
        ],
        [
          -122.381646,
          37.7748414
        ],
        [
          -122.3812674,
          37.7720765
        ],
        [
          -122.3808627,
          37.7635602
        ],
        [
          -122.3794015,
          37.7636243
        ],
        [
          -122.3790367,
          37.7598325
        ],
        [
          -122.3807148,
          37.75962
        ],
        [
          -122.3798,
          37.7522525
        ],
        [
          -122.375929,
          37.7524791
        ],
        [
          -122.3755913,
          37.7488095
        ],
        [
          -122.3676223,
          37.7403159
        ],
        [
          -122.3672448,
          37.7381112
        ],
        [
          -122.3712727,
          37.7369518
        ],
        [
          -122.3727484,
          37.7368755
        ],
        [
          -122.3739552,
          37.7370662
        ],
        [
          -122.3747558,
          37.7376286
        ],
        [
          -122.3749231,
          37.7365991
        ],
        [
          -122.3755922,
          37.7358269
        ],
        [
          -122.3757535,
          37.7357363
        ],
        [
          -122.3757894,
          37.7353931
        ],
        [
          -122.3755623,
          37.735641
        ],
        [
          -122.3751143,
          37.7355599
        ],
        [
          -122.3746303,
          37.7350928
        ],
        [
          -122.3748216,
          37.734583
        ],
        [
          -122.3747977,
          37.7340968
        ],
        [
          -122.3751263,
          37.7331339
        ],
        [
          -122.3748694,
          37.732886
        ],
        [
          -122.3742959,
          37.7329242
        ],
        [
          -122.3723303,
          37.7344305
        ],
        [
          -122.3693611,
          37.7325716
        ],
        [
          -122.3692297,
          37.7322427
        ],
        [
          -122.3688234,
          37.732195
        ],
        [
          -122.3685127,
          37.7323857
        ],
        [
          -122.3676464,
          37.7321474
        ],
        [
          -122.3668806,
          37.7325828
        ],
        [
          -122.3657374,
          37.7319708
        ],
        [
          -122.3652727,
          37.7323239
        ],
        [
          -122.3617395,
          37.7302994
        ],
        [
          -122.359748,
          37.7306347
        ],
        [
          -122.3568271,
          37.7288339
        ],
        [
          -122.357336,
          37.726015
        ],
        [
          -122.361282,
          37.7250323
        ],
        [
          -122.3610755,
          37.7244614
        ],
        [
          -122.3578596,
          37.7251853
        ],
        [
          -122.3575867,
          37.7245203
        ],
        [
          -122.3622113,
          37.7233842
        ],
        [
          -122.3622924,
          37.7233019
        ],
        [
          -122.3595633,
          37.7217424
        ],
        [
          -122.3602567,
          37.7209951
        ],
        [
          -122.3629636,
          37.7225428
        ],
        [
          -122.3633472,
          37.7221544
        ],
        [
          -122.3587003,
          37.7194178
        ],
        [
          -122.3599542,
          37.7180819
        ],
        [
          -122.3624885,
          37.7195131
        ],
        [
          -122.3628831,
          37.7190207
        ],
        [
          -122.3617701,
          37.7183103
        ],
        [
          -122.3641276,
          37.7159047
        ],
        [
          -122.3647346,
          37.7160662
        ],
        [
          -122.365281,
          37.7154849
        ],
        [
          -122.3660904,
          37.7157998
        ],
        [
          -122.3668391,
          37.7166393
        ],
        [
          -122.3684074,
          37.7175273
        ],
        [
          -122.3697227,
          37.7176322
        ],
        [
          -122.3706537,
          37.7184477
        ],
        [
          -122.374195,
          37.7186334
        ],
        [
          -122.3757835,
          37.7202156
        ],
        [
          -122.3773113,
          37.7238725
        ],
        [
          -122.3781713,
          37.7236626
        ],
        [
          -122.3806805,
          37.7216608
        ],
        [
          -122.3822791,
          37.7217012
        ],
        [
          -122.3827142,
          37.7209827
        ],
        [
          -122.3757127,
          37.7161554
        ],
        [
          -122.3769169,
          37.7144925
        ],
        [
          -122.3789912,
          37.7123857
        ],
        [
          -122.3795881,
          37.711417
        ],
        [
          -122.3798512,
          37.711304
        ],
        [
          -122.37975,
          37.7108035
        ],
        [
          -122.3795274,
          37.7107631
        ],
        [
          -122.3785663,
          37.7100043
        ],
        [
          -122.3785967,
          37.7096894
        ],
        [
          -122.3777974,
          37.7090194
        ],
        [
          -122.37717,
          37.7091728
        ],
        [
          -122.3765023,
          37.7100446
        ],
        [
          -122.3757232,
          37.7100769
        ],
        [
          -122.374246,
          37.709197
        ],
        [
          -122.3741651,
          37.7082687
        ],
        [
          -122.3794061,
          37.7080347
        ],
        [
          -122.3803471,
          37.7084141
        ],
        [
          -122.3818445,
          37.7084141
        ],
        [
          -122.382401,
          37.7088016
        ],
        [
          -122.3842627,
          37.7088743
        ],
        [
          -122.3859929,
          37.7096008
        ],
        [
          -122.3880063,
          37.7084384
        ],
        [
          -122.3883604,
          37.7084545
        ],
        [
          -122.3897769,
          37.7092295
        ],
        [
          -122.3904447,
          37.7088743
        ],
        [
          -122.3830222,
          37.6806869
        ],
        [
          -122.3796751,
          37.6774572
        ],
        [
          -122.3767858,
          37.6705414
        ],
        [
          -122.3794957,
          37.6650447
        ],
        [
          -122.3737614,
          37.6638021
        ],
        [
          -122.3730229,
          37.6590337
        ],
        [
          -122.3777418,
          37.6600002
        ],
        [
          -122.3745689,
          37.6556737
        ],
        [
          -122.3797724,
          37.64645
        ],
        [
          -122.3907663,
          37.6462956
        ],
        [
          -122.3882228,
          37.640559
        ],
        [
          -122.3824262,
          37.6403795
        ],
        [
          -122.3778736,
          37.6366416
        ],
        [
          -122.3773178,
          37.6342132
        ],
        [
          -122.3865818,
          37.6324392
        ],
        [
          -122.3845967,
          37.6301585
        ],
        [
          -122.3797661,
          37.6311299
        ],
        [
          -122.3794088,
          37.631679
        ],
        [
          -122.3777725,
          37.6317657
        ],
        [
          -122.3759494,
          37.6300081
        ],
        [
          -122.3709358,
          37.6284929
        ],
        [
          -122.3670237,
          37.6293111
        ],
        [
          -122.3635673,
          37.6280384
        ],
        [
          -122.3644029,
          37.6251141
        ],
        [
          -122.3664824,
          37.6212125
        ],
        [
          -122.3535184,
          37.6148209
        ],
        [
          -122.3579609,
          37.6082778
        ],
        [
          -122.3710944,
          37.6134129
        ],
        [
          -122.376153,
          37.6057955
        ],
        [
          -122.3682919,
          37.6025553
        ],
        [
          -122.3621169,
          37.5982918
        ],
        [
          -122.3598251,
          37.5932041
        ],
        [
          -122.331175,
          37.5922213
        ],
        [
          -122.3299148,
          37.5892478
        ],
        [
          -122.3178627,
          37.5934406
        ],
        [
          -122.3131572,
          37.5923174
        ],
        [
          -122.3143538,
          37.583338
        ],
        [
          -122.3047896,
          37.5754006
        ],
        [
          -122.2936369,
          37.5761144
        ],
        [
          -122.2840783,
          37.5752261
        ],
        [
          -122.2777653,
          37.5734511
        ],
        [
          -122.2752347,
          37.5716688
        ],
        [
          -122.2725283,
          37.5705041
        ],
        [
          -122.2653783,
          37.5731968
        ],
        [
          -122.2637377,
          37.5738658
        ],
        [
          -122.2623429,
          37.57352
        ],
        [
          -122.2577445,
          37.5732448
        ],
        [
          -122.2529451,
          37.5692706
        ],
        [
          -122.2499535,
          37.5667541
        ],
        [
          -122.2450272,
          37.5578451
        ],
        [
          -122.2432604,
          37.5564443
        ],
        [
          -122.2445793,
          37.5537184
        ],
        [
          -122.2432777,
          37.5525695
        ],
        [
          -122.2321922,
          37.5528207
        ],
        [
          -122.2238191,
          37.5493837
        ],
        [
          -122.2248653,
          37.5438734
        ],
        [
          -122.2282588,
          37.5391392
        ],
        [
          -122.2314688,
          37.532296
        ],
        [
          -122.2442401,
          37.5270126
        ],
        [
          -122.2469927,
          37.5160317
        ],
        [
          -122.2429886,
          37.5083382
        ],
        [
          -122.231382,
          37.5077246
        ],
        [
          -122.2264538,
          37.5039448
        ],
        [
          -122.2242853,
          37.5010599
        ],
        [
          -122.2219507,
          37.5040487
        ],
        [
          -122.2203547,
          37.5051256
        ],
        [
          -122.213327,
          37.5066572
        ],
        [
          -122.2104655,
          37.5128054
        ],
        [
          -122.205418,
          37.5178952
        ],
        [
          -122.1977139,
          37.5149983
        ],
        [
          -122.1889248,
          37.5134706
        ],
        [
          -122.187721,
          37.5113165
        ],
        [
          -122.1931481,
          37.5065627
        ],
        [
          -122.1902913,
          37.502704
        ],
        [
          -122.1834361,
          37.5048453
        ],
        [
          -122.1757426,
          37.5029327
        ],
        [
          -122.1767046,
          37.4963268
        ],
        [
          -122.1656296,
          37.4957511
        ],
        [
          -122.1649612,
          37.4839266
        ],
        [
          -122.1511916,
          37.4824638
        ],
        [
          -122.1511147,
          37.4867619
        ],
        [
          -122.1450303,
          37.486821
        ],
        [
          -122.1448138,
          37.4865443
        ],
        [
          -122.1452915,
          37.4843854
        ],
        [
          -122.1455071,
          37.484196
        ],
        [
          -122.1453644,
          37.4839626
        ],
        [
          -122.1455343,
          37.4838104
        ],
        [
          -122.1458801,
          37.4835343
        ],
        [
          -122.1464132,
          37.4831769
        ],
        [
          -122.1467858,
          37.4829631
        ],
        [
          -122.147357,
          37.482686
        ],
        [
          -122.1479258,
          37.4824756
        ],
        [
          -122.1483374,
          37.4823509
        ],
        [
          -122.148833,
          37.4822294
        ],
        [
          -122.1492507,
          37.4821529
        ],
        [
          -122.149183,
          37.4818365
        ],
        [
          -122.148108,
          37.4819595
        ],
        [
          -122.1453806,
          37.4832504
        ],
        [
          -122.1427181,
          37.4857292
        ],
        [
          -122.1400753,
          37.4796928
        ],
        [
          -122.1394096,
          37.4796887
        ],
        [
          -122.1391895,
          37.4814117
        ],
        [
          -122.1379105,
          37.4823928
        ],
        [
          -122.1335797,
          37.4834962
        ],
        [
          -122.1215602,
          37.4774703
        ],
        [
          -122.1188899,
          37.4756899
        ],
        [
          -122.1174537,
          37.4687138
        ],
        [
          -122.1000282,
          37.4583224
        ],
        [
          -122.1021061,
          37.4519882
        ],
        [
          -122.1078433,
          37.4396986
        ],
        [
          -122.103859,
          37.4337504
        ],
        [
          -122.0993553,
          37.4360772
        ],
        [
          -122.0715594,
          37.436051
        ],
        [
          -122.0228156,
          37.4214255
        ],
        [
          -121.9967299,
          37.4173916
        ],
        [
          -121.99163,
          37.4116727
        ],
        [
          -121.9804749,
          37.4158015
        ],
        [
          -121.9771822,
          37.4166095
        ],
        [
          -121.9765118,
          37.4168531
        ],
        [
          -121.9756251,
          37.4171654
        ],
        [
          -121.9729532,
          37.4181846
        ],
        [
          -121.9699025,
          37.4190649
        ],
        [
          -121.9681332,
          37.4192316
        ],
        [
          -121.9659473,
          37.4192296
        ],
        [
          -121.9663427,
          37.4222445
        ],
        [
          -121.9661197,
          37.4226628
        ],
        [
          -121.9637222,
          37.4246643
        ],
        [
          -121.9618397,
          37.4264342
        ],
        [
          -121.960657,
          37.4253212
        ],
        [
          -121.9603718,
          37.4248284
        ],
        [
          -121.960295,
          37.4244691
        ],
        [
          -121.9602893,
          37.4237981
        ],
        [
          -121.9541449,
          37.4238301
        ],
        [
          -121.954089,
          37.4221906
        ],
        [
          -121.9522043,
          37.4220356
        ],
        [
          -121.9522409,
          37.4196234
        ],
        [
          -121.9562048,
          37.4195969
        ],
        [
          -121.9571758,
          37.419685
        ],
        [
          -121.9581342,
          37.4198024
        ],
        [
          -121.9592845,
          37.4201387
        ],
        [
          -121.9603007,
          37.4200081
        ],
        [
          -121.9595026,
          37.4195594
        ],
        [
          -121.9589159,
          37.4191575
        ],
        [
          -121.9577401,
          37.4191659
        ],
        [
          -121.9573203,
          37.4189581
        ],
        [
          -121.9571999,
          37.4187176
        ],
        [
          -121.9571854,
          37.418477
        ],
        [
          -121.9573205,
          37.4182771
        ],
        [
          -121.9577733,
          37.4179982
        ],
        [
          -121.9576483,
          37.4178726
        ],
        [
          -121.9569802,
          37.4183036
        ],
        [
          -121.956235,
          37.4189238
        ],
        [
          -121.9556683,
          37.4191124
        ],
        [
          -121.9548768,
          37.4191844
        ],
        [
          -121.9521098,
          37.4191633
        ],
        [
          -121.9496332,
          37.4191079
        ],
        [
          -121.9459695,
          37.4190889
        ],
        [
          -121.9399567,
          37.4195818
        ],
        [
          -121.9398427,
          37.4190334
        ],
        [
          -121.9397959,
          37.418809
        ],
        [
          -121.9397292,
          37.4185084
        ],
        [
          -121.9388988,
          37.4185344
        ],
        [
          -121.9387557,
          37.4181812
        ],
        [
          -121.9384746,
          37.417481
        ],
        [
          -121.9382997,
          37.4170413
        ],
        [
          -121.9381166,
          37.4165873
        ],
        [
          -121.9379441,
          37.4161574
        ],
        [
          -121.937703,
          37.4155611
        ],
        [
          -121.937472,
          37.4156278
        ],
        [
          -121.9348583,
          37.4156731
        ],
        [
          -121.9318054,
          37.4157322
        ],
        [
          -121.9302434,
          37.4157618
        ],
        [
          -121.9296196,
          37.4153297
        ],
        [
          -121.9265648,
          37.4131338
        ],
        [
          -121.9210841,
          37.4132111
        ],
        [
          -121.917052,
          37.4144723
        ],
        [
          -121.9167682,
          37.4142361
        ],
        [
          -121.9163204,
          37.413868
        ],
        [
          -121.9161741,
          37.4140115
        ],
        [
          -121.915556,
          37.4144075
        ],
        [
          -121.9148548,
          37.4146819
        ],
        [
          -121.9136092,
          37.4150548
        ],
        [
          -121.9132834,
          37.4143949
        ],
        [
          -121.9131293,
          37.414135
        ],
        [
          -121.9126788,
          37.4133799
        ],
        [
          -121.912553,
          37.4130895
        ],
        [
          -121.9123294,
          37.4125744
        ],
        [
          -121.9121159,
          37.4120892
        ],
        [
          -121.9119983,
          37.4117494
        ],
        [
          -121.9118702,
          37.4113959
        ],
        [
          -121.9116028,
          37.4105949
        ],
        [
          -121.9112935,
          37.4096882
        ],
        [
          -121.9112448,
          37.409524
        ],
        [
          -121.9109489,
          37.4085388
        ],
        [
          -121.9106181,
          37.4074514
        ],
        [
          -121.9104439,
          37.4066175
        ],
        [
          -121.9102436,
          37.4056457
        ],
        [
          -121.9099639,
          37.4043304
        ],
        [
          -121.9098876,
          37.4037332
        ],
        [
          -121.9097856,
          37.4028952
        ],
        [
          -121.9086446,
          37.4033472
        ],
        [
          -121.9082554,
          37.4033553
        ],
        [
          -121.9077825,
          37.4032206
        ],
        [
          -121.9072302,
          37.4028423
        ],
        [
          -121.9073518,
          37.4019977
        ],
        [
          -121.9079035,
          37.4006244
        ],
        [
          -121.9077105,
          37.3993851
        ],
        [
          -121.9073405,
          37.3969499
        ],
        [
          -121.9056998,
          37.390183
        ],
        [
          -121.9039773,
          37.3833223
        ],
        [
          -121.9037947,
          37.382485
        ],
        [
          -121.902045,
          37.3820946
        ],
        [
          -121.9025814,
          37.3803138
        ],
        [
          -121.9031389,
          37.3794475
        ],
        [
          -121.901176,
          37.3704867
        ],
        [
          -121.9000478,
          37.3694571
        ],
        [
          -121.8998539,
          37.3691908
        ],
        [
          -121.8995285,
          37.3687493
        ],
        [
          -121.8995402,
          37.3676417
        ],
        [
          -121.8997098,
          37.3662531
        ],
        [
          -121.8979799,
          37.3641613
        ],
        [
          -121.8967261,
          37.3638798
        ],
        [
          -121.8954486,
          37.3637742
        ],
        [
          -121.8933964,
          37.3637549
        ],
        [
          -121.8920231,
          37.3637484
        ],
        [
          -121.8916311,
          37.3636829
        ],
        [
          -121.8908959,
          37.3635058
        ],
        [
          -121.8886923,
          37.3631001
        ],
        [
          -121.8864231,
          37.3628193
        ],
        [
          -121.8849304,
          37.3626356
        ],
        [
          -121.8834183,
          37.3624741
        ],
        [
          -121.8814337,
          37.3622635
        ],
        [
          -121.8796382,
          37.3618901
        ],
        [
          -121.8761906,
          37.3612791
        ],
        [
          -121.8718316,
          37.3593235
        ],
        [
          -121.8694089,
          37.3573983
        ],
        [
          -121.8681013,
          37.3565394
        ],
        [
          -121.8655803,
          37.3550823
        ],
        [
          -121.8633579,
          37.3523247
        ],
        [
          -121.8623574,
          37.3513763
        ],
        [
          -121.8608187,
          37.3506268
        ],
        [
          -121.860197,
          37.3493298
        ],
        [
          -121.8586253,
          37.3471035
        ],
        [
          -121.8548359,
          37.3433212
        ],
        [
          -121.8500328,
          37.3400106
        ],
        [
          -121.8483532,
          37.3378177
        ],
        [
          -121.8470598,
          37.3367077
        ],
        [
          -121.8465381,
          37.3353729
        ],
        [
          -121.8456038,
          37.3340402
        ],
        [
          -121.8394959,
          37.3275252
        ],
        [
          -121.847159,
          37.3220922
        ],
        [
          -121.8564269,
          37.3151443
        ],
        [
          -121.8583255,
          37.3167963
        ],
        [
          -121.8763093,
          37.3062711
        ],
        [
          -121.8754631,
          37.3053091
        ],
        [
          -121.8750077,
          37.3042297
        ],
        [
          -121.8749883,
          37.3032281
        ],
        [
          -121.8761245,
          37.3016817
        ],
        [
          -121.8742692,
          37.2990169
        ],
        [
          -121.8721597,
          37.2949789
        ],
        [
          -121.870852,
          37.2907081
        ],
        [
          -121.8703219,
          37.289359
        ],
        [
          -121.8681589,
          37.2862238
        ],
        [
          -121.8661961,
          37.2832952
        ],
        [
          -121.8646727,
          37.280053
        ],
        [
          -121.8643526,
          37.2801277
        ],
        [
          -121.8633321,
          37.2778666
        ],
        [
          -121.8620222,
          37.2762132
        ],
        [
          -121.8600959,
          37.2749565
        ],
        [
          -121.8540948,
          37.2750119
        ],
        [
          -121.8539872,
          37.2741122
        ],
        [
          -121.8524611,
          37.2742303
        ],
        [
          -121.8510071,
          37.2708508
        ],
        [
          -121.8498262,
          37.2707166
        ],
        [
          -121.8486123,
          37.2679209
        ],
        [
          -121.8475603,
          37.2682312
        ],
        [
          -121.846023,
          37.2663478
        ],
        [
          -121.8454049,
          37.2640095
        ],
        [
          -121.8455039,
          37.2637477
        ],
        [
          -121.8462779,
          37.2609755
        ],
        [
          -121.8465932,
          37.2601989
        ],
        [
          -121.8480544,
          37.2557385
        ],
        [
          -121.8537906,
          37.2559494
        ],
        [
          -121.8558126,
          37.2562542
        ],
        [
          -121.8576662,
          37.2572161
        ],
        [
          -121.8584869,
          37.2559535
        ],
        [
          -121.85814,
          37.2499601
        ],
        [
          -121.8652429,
          37.2500061
        ],
        [
          -121.8723379,
          37.2502461
        ],
        [
          -121.875913,
          37.2503711
        ],
        [
          -121.8775069,
          37.2501279
        ],
        [
          -121.8795627,
          37.2493101
        ],
        [
          -121.8869185,
          37.2453952
        ],
        [
          -121.8884043,
          37.2456742
        ],
        [
          -121.8899684,
          37.2458998
        ],
        [
          -121.8920973,
          37.2451151
        ],
        [
          -121.8945758,
          37.2485128
        ],
        [
          -121.8959233,
          37.2502919
        ],
        [
          -121.9041045,
          37.2502204
        ],
        [
          -121.9075337,
          37.2500705
        ],
        [
          -121.9081472,
          37.2497315
        ],
        [
          -121.9092055,
          37.2488554
        ],
        [
          -121.9100965,
          37.2485535
        ],
        [
          -121.910689,
          37.2501377
        ],
        [
          -121.9113467,
          37.2503037
        ],
        [
          -121.9152995,
          37.2503207
        ],
        [
          -121.9225997,
          37.2501795
        ],
        [
          -121.9242957,
          37.2501295
        ],
        [
          -121.9291236,
          37.2499804
        ],
        [
          -121.9343723,
          37.2503939
        ],
        [
          -121.9349416,
          37.2510596
        ],
        [
          -121.9384636,
          37.2518043
        ],
        [
          -121.9441413,
          37.2526295
        ],
        [
          -121.9511899,
          37.2533492
        ],
        [
          -121.9519437,
          37.2533793
        ],
        [
          -121.9525435,
          37.2526508
        ],
        [
          -121.952817,
          37.2513718
        ],
        [
          -121.9528649,
          37.2509776
        ],
        [
          -121.9533241,
          37.2507055
        ],
        [
          -121.9562457,
          37.2477587
        ],
        [
          -121.9586516,
          37.2488602
        ],
        [
          -121.9603623,
          37.2496884
        ],
        [
          -121.9633221,
          37.2511986
        ],
        [
          -121.9659021,
          37.2523686
        ],
        [
          -121.9678621,
          37.2530668
        ],
        [
          -121.9665053,
          37.2554605
        ],
        [
          -121.9655152,
          37.2571121
        ],
        [
          -121.9662618,
          37.2575592
        ],
        [
          -121.9670094,
          37.2583913
        ],
        [
          -121.9685663,
          37.2592382
        ],
        [
          -121.9747276,
          37.261919
        ],
        [
          -121.9808757,
          37.2644579
        ],
        [
          -121.9830344,
          37.2643343
        ],
        [
          -121.9928407,
          37.2622392
        ],
        [
          -121.9936018,
          37.2632831
        ],
        [
          -121.994254,
          37.2709223
        ],
        [
          -121.9992538,
          37.2724702
        ],
        [
          -122.0038515,
          37.274458
        ],
        [
          -122.0073858,
          37.2759469
        ],
        [
          -122.0092718,
          37.2771715
        ],
        [
          -122.0135237,
          37.2808664
        ],
        [
          -122.0146488,
          37.2819196
        ],
        [
          -122.0154397,
          37.2823598
        ],
        [
          -122.0179216,
          37.282537
        ],
        [
          -122.0317178,
          37.2826837
        ],
        [
          -122.0317321,
          37.2814127
        ],
        [
          -122.0336994,
          37.2807278
        ],
        [
          -122.0341966,
          37.2770837
        ],
        [
          -122.0376584,
          37.2756573
        ],
        [
          -122.0401359,
          37.2746391
        ],
        [
          -122.0445857,
          37.2710757
        ],
        [
          -122.0455238,
          37.266996
        ],
        [
          -122.0448671,
          37.2640223
        ],
        [
          -122.0468066,
          37.2616153
        ],
        [
          -122.0498656,
          37.2605861
        ],
        [
          -122.0538401,
          37.2607411
        ],
        [
          -122.0540763,
          37.2556801
        ],
        [
          -122.0560024,
          37.2557139
        ],
        [
          -122.0564467,
          37.2556331
        ],
        [
          -122.0620976,
          37.2615777
        ],
        [
          -122.0606297,
          37.2678869
        ],
        [
          -122.0644363,
          37.2695416
        ],
        [
          -122.0674678,
          37.2729676
        ],
        [
          -122.069686,
          37.2748196
        ],
        [
          -122.072109,
          37.2770459
        ],
        [
          -122.0725751,
          37.279154
        ],
        [
          -122.072987,
          37.2796613
        ],
        [
          -122.0729094,
          37.2804101
        ],
        [
          -122.0734723,
          37.280399
        ],
        [
          -122.0751616,
          37.2810403
        ],
        [
          -122.0792042,
          37.285077
        ],
        [
          -122.0819551,
          37.28897
        ],
        [
          -122.0846589,
          37.2950574
        ],
        [
          -122.0898023,
          37.293512
        ],
        [
          -122.0914998,
          37.293768
        ],
        [
          -122.0918501,
          37.2946043
        ],
        [
          -122.0911273,
          37.2954319
        ],
        [
          -122.090256,
          37.2953042
        ],
        [
          -122.0894014,
          37.2962751
        ],
        [
          -122.0869031,
          37.2960852
        ],
        [
          -122.0866303,
          37.2965222
        ],
        [
          -122.0846694,
          37.2962446
        ],
        [
          -122.0815235,
          37.2967272
        ],
        [
          -122.080978,
          37.2982364
        ],
        [
          -122.0771699,
          37.3035886
        ],
        [
          -122.0756082,
          37.3070811
        ],
        [
          -122.0769718,
          37.3122016
        ],
        [
          -122.0846482,
          37.3181036
        ],
        [
          -122.0869048,
          37.3211333
        ],
        [
          -122.0860357,
          37.3219975
        ],
        [
          -122.0816725,
          37.3236961
        ],
        [
          -122.0816147,
          37.3238142
        ],
        [
          -122.0831315,
          37.3258368
        ],
        [
          -122.0848478,
          37.3282386
        ],
        [
          -122.0859747,
          37.3297735
        ],
        [
          -122.0868529,
          37.3310094
        ],
        [
          -122.087821,
          37.3323854
        ],
        [
          -122.0882106,
          37.3329984
        ],
        [
          -122.0897242,
          37.3356288
        ],
        [
          -122.0905459,
          37.3366937
        ],
        [
          -122.0909373,
          37.3387613
        ],
        [
          -122.0907822,
          37.3406687
        ],
        [
          -122.0926354,
          37.3417218
        ],
        [
          -122.0942222,
          37.343127
        ],
        [
          -122.095518,
          37.3441527
        ],
        [
          -122.0983962,
          37.3456486
        ],
        [
          -122.1020378,
          37.3473552
        ],
        [
          -122.1031636,
          37.3479958
        ],
        [
          -122.1037762,
          37.3484282
        ],
        [
          -122.1048839,
          37.3495223
        ],
        [
          -122.1061627,
          37.3513912
        ],
        [
          -122.1074059,
          37.3523664
        ],
        [
          -122.1078286,
          37.3522836
        ],
        [
          -122.1100758,
          37.3529492
        ],
        [
          -122.111011,
          37.3537233
        ],
        [
          -122.1140235,
          37.3549886
        ],
        [
          -122.1158695,
          37.3555349
        ],
        [
          -122.1181849,
          37.3573114
        ],
        [
          -122.1197324,
          37.359156
        ],
        [
          -122.121501,
          37.3595683
        ],
        [
          -122.1220463,
          37.360043
        ],
        [
          -122.1219813,
          37.3621242
        ],
        [
          -122.123043,
          37.3627818
        ],
        [
          -122.1262536,
          37.3640337
        ],
        [
          -122.1308742,
          37.3645794
        ],
        [
          -122.1349263,
          37.3657948
        ],
        [
          -122.1375146,
          37.3666186
        ],
        [
          -122.1399963,
          37.3675315
        ],
        [
          -122.1432292,
          37.3706214
        ],
        [
          -122.1491223,
          37.3762924
        ],
        [
          -122.1504516,
          37.3776056
        ],
        [
          -122.1512616,
          37.3785434
        ],
        [
          -122.1517866,
          37.3798448
        ],
        [
          -122.1522735,
          37.3814061
        ],
        [
          -122.1531269,
          37.3843918
        ],
        [
          -122.15408,
          37.385842
        ],
        [
          -122.1573916,
          37.3875408
        ],
        [
          -122.1609604,
          37.3879044
        ],
        [
          -122.1647434,
          37.3832361
        ],
        [
          -122.16571,
          37.3837779
        ],
        [
          -122.169818,
          37.3841649
        ],
        [
          -122.1782116,
          37.3860235
        ],
        [
          -122.1810098,
          37.3805449
        ],
        [
          -122.1838756,
          37.3804278
        ],
        [
          -122.1932743,
          37.3822769
        ],
        [
          -122.1933529,
          37.3821067
        ],
        [
          -122.1935862,
          37.3818566
        ],
        [
          -122.1940384,
          37.3815819
        ],
        [
          -122.1942919,
          37.3810738
        ],
        [
          -122.194535,
          37.3807106
        ],
        [
          -122.1951454,
          37.3810075
        ],
        [
          -122.1962741,
          37.3797504
        ],
        [
          -122.1967371,
          37.3787352
        ],
        [
          -122.197073,
          37.3781826
        ],
        [
          -122.1977755,
          37.3775771
        ],
        [
          -122.197945,
          37.3775072
        ],
        [
          -122.1983004,
          37.3773436
        ],
        [
          -122.1981254,
          37.3771174
        ],
        [
          -122.1981374,
          37.3770293
        ],
        [
          -122.1984116,
          37.3769236
        ],
        [
          -122.1995613,
          37.3766957
        ],
        [
          -122.200526,
          37.3761449
        ],
        [
          -122.2016236,
          37.3754263
        ],
        [
          -122.2044804,
          37.3735024
        ],
        [
          -122.207014,
          37.3719525
        ],
        [
          -122.2094556,
          37.3703784
        ],
        [
          -122.2111159,
          37.3694216
        ],
        [
          -122.2126997,
          37.36838
        ],
        [
          -122.2136062,
          37.3678166
        ],
        [
          -122.2139195,
          37.3681058
        ],
        [
          -122.214259,
          37.3684697
        ],
        [
          -122.214268,
          37.3687839
        ],
        [
          -122.2148039,
          37.369792
        ],
        [
          -122.2155786,
          37.3715898
        ],
        [
          -122.2160419,
          37.3724375
        ],
        [
          -122.216054,
          37.3733162
        ],
        [
          -122.2182764,
          37.3732639
        ],
        [
          -122.2194874,
          37.3750488
        ],
        [
          -122.2214409,
          37.3748178
        ],
        [
          -122.2226201,
          37.3753592
        ],
        [
          -122.223168,
          37.3759231
        ],
        [
          -122.2239591,
          37.3768034
        ],
        [
          -122.2251248,
          37.3789879
        ],
        [
          -122.2266539,
          37.3803235
        ],
        [
          -122.2274552,
          37.3811199
        ],
        [
          -122.227681,
          37.3812392
        ],
        [
          -122.2292027,
          37.3824415
        ],
        [
          -122.2291335,
          37.3826563
        ],
        [
          -122.2291902,
          37.3826844
        ],
        [
          -122.2296871,
          37.3828539
        ],
        [
          -122.2302559,
          37.3832653
        ],
        [
          -122.2308645,
          37.3837609
        ],
        [
          -122.231772,
          37.3845442
        ],
        [
          -122.2327872,
          37.3855235
        ],
        [
          -122.2335029,
          37.3862325
        ],
        [
          -122.2363501,
          37.3904031
        ],
        [
          -122.2368683,
          37.391075
        ],
        [
          -122.2372644,
          37.3914466
        ],
        [
          -122.236992,
          37.3924222
        ],
        [
          -122.2362189,
          37.3930492
        ],
        [
          -122.2345725,
          37.3935383
        ],
        [
          -122.2229051,
          37.3974164
        ],
        [
          -122.2161164,
          37.3996776
        ],
        [
          -122.2079564,
          37.4018569
        ],
        [
          -122.2012565,
          37.4032127
        ],
        [
          -122.2000103,
          37.4040494
        ],
        [
          -122.1958015,
          37.407754
        ],
        [
          -122.1966411,
          37.4080965
        ],
        [
          -122.1994052,
          37.4099463
        ],
        [
          -122.2075606,
          37.4123083
        ],
        [
          -122.2135362,
          37.415874
        ],
        [
          -122.2155604,
          37.417236
        ],
        [
          -122.2175508,
          37.4172372
        ],
        [
          -122.2214438,
          37.4173311
        ],
        [
          -122.2270693,
          37.4175552
        ],
        [
          -122.2316029,
          37.4176418
        ],
        [
          -122.2369175,
          37.4150536
        ],
        [
          -122.2399974,
          37.4120314
        ],
        [
          -122.2411535,
          37.4125799
        ],
        [
          -122.2425517,
          37.4153129
        ],
        [
          -122.245048,
          37.422334
        ],
        [
          -122.2463217,
          37.4238751
        ],
        [
          -122.2492001,
          37.4249688
        ],
        [
          -122.2506041,
          37.4262309
        ],
        [
          -122.2509976,
          37.4278383
        ],
        [
          -122.2525338,
          37.4286703
        ],
        [
          -122.2547288,
          37.4291139
        ],
        [
          -122.2578123,
          37.433116
        ],
        [
          -122.2638512,
          37.4388081
        ],
        [
          -122.2686272,
          37.4429117
        ],
        [
          -122.2707575,
          37.4433816
        ],
        [
          -122.2756419,
          37.4466323
        ],
        [
          -122.2857911,
          37.4406937
        ],
        [
          -122.2897916,
          37.4430492
        ],
        [
          -122.2828432,
          37.4486897
        ],
        [
          -122.2953127,
          37.4599941
        ],
        [
          -122.3063535,
          37.4726414
        ],
        [
          -122.3172255,
          37.4846923
        ],
        [
          -122.3261451,
          37.4906734
        ],
        [
          -122.3292909,
          37.496328
        ],
        [
          -122.3335537,
          37.4984099
        ],
        [
          -122.3374102,
          37.5024414
        ],
        [
          -122.3429188,
          37.5061274
        ],
        [
          -122.3418303,
          37.5073294
        ],
        [
          -122.343586,
          37.5093117
        ],
        [
          -122.3472991,
          37.5119891
        ],
        [
          -122.3493734,
          37.5135617
        ],
        [
          -122.3530845,
          37.516967
        ],
        [
          -122.353981,
          37.5181896
        ],
        [
          -122.3545978,
          37.519011
        ],
        [
          -122.3564031,
          37.5219212
        ],
        [
          -122.3569384,
          37.522049
        ],
        [
          -122.3608162,
          37.5242715
        ],
        [
          -122.3634,
          37.5286484
        ],
        [
          -122.3663303,
          37.5309162
        ],
        [
          -122.368392,
          37.5338617
        ],
        [
          -122.3700869,
          37.5372865
        ],
        [
          -122.3773334,
          37.545219
        ],
        [
          -122.3833679,
          37.5532598
        ],
        [
          -122.3912423,
          37.5610939
        ],
        [
          -122.3912581,
          37.5611103
        ],
        [
          -122.3913134,
          37.5611675
        ],
        [
          -122.3913591,
          37.5612147
        ],
        [
          -122.3914223,
          37.56128
        ],
        [
          -122.39147,
          37.5613295
        ],
        [
          -122.3915276,
          37.5613889
        ],
        [
          -122.3915657,
          37.5614284
        ],
        [
          -122.3916081,
          37.5614723
        ],
        [
          -122.3916359,
          37.561501
        ],
        [
          -122.3916771,
          37.5615436
        ],
        [
          -122.3917014,
          37.5615687
        ],
        [
          -122.3917281,
          37.5615963
        ],
        [
          -122.3917481,
          37.5616168
        ],
        [
          -122.3918648,
          37.5617364
        ],
        [
          -122.391998,
          37.5618735
        ],
        [
          -122.392203,
          37.5620849
        ],
        [
          -122.3923138,
          37.5621983
        ],
        [
          -122.3924595,
          37.5623494
        ],
        [
          -122.3926152,
          37.5625103
        ],
        [
          -122.3927838,
          37.5626835
        ],
        [
          -122.3928876,
          37.5627921
        ],
        [
          -122.3929701,
          37.562877
        ],
        [
          -122.3930706,
          37.5629813
        ],
        [
          -122.393161,
          37.5630755
        ],
        [
          -122.3932293,
          37.5631462
        ],
        [
          -122.3932834,
          37.5632024
        ],
        [
          -122.4007232,
          37.570663
        ],
        [
          -122.4050297,
          37.5776895
        ],
        [
          -122.4159209,
          37.588787
        ],
        [
          -122.4331998,
          37.6065696
        ],
        [
          -122.4440982,
          37.6178126
        ],
        [
          -122.4431614,
          37.6185334
        ],
        [
          -122.446003,
          37.6215852
        ],
        [
          -122.4477948,
          37.6239913
        ],
        [
          -122.4485049,
          37.6254307
        ],
        [
          -122.450772,
          37.6275522
        ],
        [
          -122.4522093,
          37.6293856
        ],
        [
          -122.4536097,
          37.6310756
        ],
        [
          -122.4546812,
          37.6321507
        ],
        [
          -122.4568642,
          37.6337574
        ],
        [
          -122.4599848,
          37.6355189
        ],
        [
          -122.4615179,
          37.6363439
        ],
        [
          -122.4627093,
          37.6371431
        ],
        [
          -122.4635849,
          37.6380823
        ],
        [
          -122.4640882,
          37.6384156
        ],
        [
          -122.4659899,
          37.640433
        ],
        [
          -122.4709152,
          37.6458299
        ],
        [
          -122.4723075,
          37.6474593
        ],
        [
          -122.4723142,
          37.6481228
        ],
        [
          -122.4721237,
          37.6493666
        ],
        [
          -122.4716018,
          37.6524906
        ],
        [
          -122.4723602,
          37.6543216
        ],
        [
          -122.4761878,
          37.6600371
        ],
        [
          -122.477077,
          37.6619372
        ],
        [
          -122.4794216,
          37.6638217
        ],
        [
          -122.4821041,
          37.6662841
        ],
        [
          -122.48321,
          37.6666649
        ],
        [
          -122.4840378,
          37.6666133
        ],
        [
          -122.4850956,
          37.666842
        ],
        [
          -122.4856298,
          37.6673708
        ],
        [
          -122.4868699,
          37.6696068
        ],
        [
          -122.4882882,
          37.6719763
        ],
        [
          -122.4898343,
          37.6751098
        ],
        [
          -122.4911792,
          37.6747093
        ],
        [
          -122.4927313,
          37.6743479
        ],
        [
          -122.4941913,
          37.6799624
        ],
        [
          -122.4933832,
          37.682408
        ]
      ]
    ]
  }
}
