{
  "type": "Feature",
  "properties": {},
  "geometry": {
    "type": "Polygon",
    "coordinates": [
      [
        [
          -104.981532,
          39.8436663
        ],
        [
          -104.9802841,
          39.8404655
        ],
        [
          -104.9628486,
          39.840447
        ],
        [
          -104.9618941,
          39.7993854
        ],
        [
          -104.9586261,
          39.7958238
        ],
        [
          -104.9612357,
          39.7926965
        ],
        [
          -104.9606851,
          39.783429
        ],
        [
          -104.9433993,
          39.7826356
        ],
        [
          -104.9423249,
          39.7869016
        ],
        [
          -104.9396794,
          39.7884837
        ],
        [
          -104.9424177,
          39.7908937
        ],
        [
          -104.941053,
          39.7970953
        ],
        [
          -104.938599,
          39.799705
        ],
        [
          -104.9350646,
          39.7991094
        ],
        [
          -104.9273973,
          39.8010178
        ],
        [
          -104.9051168,
          39.8017098
        ],
        [
          -104.904195,
          39.7909028
        ],
        [
          -104.9008133,
          39.7896611
        ],
        [
          -104.8842188,
          39.7897599
        ],
        [
          -104.8792719,
          39.786092
        ],
        [
          -104.8779492,
          39.7868831
        ],
        [
          -104.8772638,
          39.7934621
        ],
        [
          -104.8670408,
          39.7936024
        ],
        [
          -104.8664094,
          39.7808576
        ],
        [
          -104.8646916,
          39.7790775
        ],
        [
          -104.8662717,
          39.7749329
        ],
        [
          -104.8652902,
          39.7615452
        ],
        [
          -104.8978237,
          39.7620007
        ],
        [
          -104.9049014,
          39.7635789
        ],
        [
          -104.9342208,
          39.7627899
        ],
        [
          -104.9335626,
          39.7055578
        ],
        [
          -104.9276131,
          39.7020281
        ],
        [
          -104.9313839,
          39.6983648
        ],
        [
          -104.9309351,
          39.67902
        ],
        [
          -104.9570762,
          39.6785317
        ],
        [
          -104.9585666,
          39.6777371
        ],
        [
          -104.9586265,
          39.6730911
        ],
        [
          -104.9650009,
          39.6732616
        ],
        [
          -104.9659615,
          39.6785386
        ],
        [
          -104.9978068,
          39.67823
        ],
        [
          -104.9990906,
          39.6829862
        ],
        [
          -104.9925366,
          39.6823022
        ],
        [
          -104.9926982,
          39.6892666
        ],
        [
          -104.9951253,
          39.6927163
        ],
        [
          -104.9942783,
          39.6995645
        ],
        [
          -104.999707,
          39.7095501
        ],
        [
          -105.0019216,
          39.7110673
        ],
        [
          -105.0265515,
          39.7104711
        ],
        [
          -105.0269225,
          39.7192351
        ],
        [
          -105.0239149,
          39.7196633
        ],
        [
          -105.0231278,
          39.7218662
        ],
        [
          -105.0268447,
          39.7231045
        ],
        [
          -105.0273953,
          39.72516
        ],
        [
          -105.0550508,
          39.7249092
        ],
        [
          -105.0555865,
          39.7335402
        ],
        [
          -105.0522646,
          39.734875
        ],
        [
          -105.0523155,
          39.7370659
        ],
        [
          -105.055353,
          39.7379266
        ],
        [
          -105.0564005,
          39.739717
        ],
        [
          -105.0845587,
          39.7394593
        ],
        [
          -105.0845647,
          39.7469357
        ],
        [
          -105.0554188,
          39.7479803
        ],
        [
          -105.0561609,
          39.7799288
        ],
        [
          -105.0577411,
          39.7829991
        ],
        [
          -105.0559484,
          39.7852138
        ],
        [
          -105.0383335,
          39.7846825
        ],
        [
          -105.0379115,
          39.7953801
        ],
        [
          -105.0283588,
          39.7955112
        ],
        [
          -105.0281164,
          39.7922942
        ],
        [
          -105.0265961,
          39.7917999
        ],
        [
          -105.0095138,
          39.7925495
        ],
        [
          -105.0105222,
          39.8359316
        ],
        [
          -105.0012149,
          39.8394062
        ],
        [
          -104.9964446,
          39.8433332
        ],
        [
          -104.981532,
          39.8436663
        ]
      ]
    ]
  }
}
