{
  "type": "Feature",
  "properties": {
    "slug": "dallas",
    "name": "Dallas, TX",
    "raw_point_count": 26,
    "bbox": [
      -96.92413330078125,
      32.7352409362793,
      -96.72843933105469,
      32.87525939941406
    ],
    "fetched_at": "2026-08-29T16:33:08+00:00",
    "source": "owner-api.robotaxi_fleet_areas"
  },
  "geometry": {
    "type": "Polygon",
    "coordinates": [
      [
        [
          -96.85449981689453,
          32.842010498046875
        ],
        [
          -96.88002014160156,
          32.83517074584961
        ],
        [
          -96.89704895019531,
          32.81962966918945
        ],
        [
          -96.92369842529297,
          32.816131591796875
        ],
        [
          -96.92413330078125,
          32.795570373535156
        ],
        [
          -96.9222412109375,
          32.7465705871582
        ],
        [
          -96.83486938476562,
          32.73719024658203
        ],
        [
          -96.814697265625,
          32.7352409362793
        ],
        [
          -96.7857666015625,
          32.74266815185547
        ],
        [
          -96.76860809326172,
          32.753929138183594
        ],
        [
          -96.75247192382812,
          32.763458251953125
        ],
        [
          -96.73719024658203,
          32.779911041259766
        ],
        [
          -96.73316192626953,
          32.79664993286133
        ],
        [
          -96.72843933105469,
          32.81367111206055
        ],
        [
          -96.73538970947266,
          32.82456970214844
        ],
        [
          -96.73943328857422,
          32.84410858154297
        ],
        [
          -96.73873901367188,
          32.86112976074219
        ],
        [
          -96.74388885498047,
          32.873531341552734
        ],
        [
          -96.75212860107422,
          32.87525939941406
        ],
        [
          -96.76171112060547,
          32.87223815917969
        ],
        [
          -96.7771987915039,
          32.87234878540039
        ],
        [
          -96.77700805664062,
          32.866058349609375
        ],
        [
          -96.82573699951172,
          32.86772155761719
        ],
        [
          -96.84671020507812,
          32.864471435546875
        ],
        [
          -96.85820007324219,
          32.86071014404297
        ],
        [
          -96.84564208984375,
          32.8488883972168
        ],
        [
          -96.85449981689453,
          32.842010498046875
        ]
      ]
    ]
  }
}
