{
  "type": "Feature",
  "properties": {
    "provider": "tesla",
    "name": "Orlando, FL",
    "source": "tesla_robotaxi_app_fleet_areas",
    "sourceInternalName": "orlando",
    "sourcePolygonCount": 1
  },
  "geometry": {
    "type": "Polygon",
    "coordinates": [
      [
        [
          -81.3313599,
          28.5245132
        ],
        [
          -81.3309555,
          28.4507866
        ],
        [
          -81.3034134,
          28.4508266
        ],
        [
          -81.2952728,
          28.4498863
        ],
        [
          -81.286911,
          28.4478149
        ],
        [
          -81.2574997,
          28.4479446
        ],
        [
          -81.246788,
          28.4503269
        ],
        [
          -81.2294006,
          28.4508419
        ],
        [
          -81.2413101,
          28.4888783
        ],
        [
          -81.2447739,
          28.5108604
        ],
        [
          -81.2763748,
          28.5107536
        ],
        [
          -81.3097458,
          28.5246811
        ],
        [
          -81.3313599,
          28.5245132
        ]
      ]
    ]
  }
}
