{
  "type": "Feature",
  "properties": {
    "slug": "bay-area",
    "name": "Bay Area, CA",
    "raw_point_count": 31,
    "bbox": [
      -122.59638214111328,
      37.18098068237305,
      -121.70870971679688,
      37.9207763671875
    ],
    "fetched_at": "2026-08-30T04:08:47+00:00",
    "source": "owner-api.robotaxi_fleet_areas",
    "classification": "production_fleet_area_exposed_to_authenticated_riders_account"
  },
  "geometry": {
    "type": "Polygon",
    "coordinates": [
      [
        [
          -122.4970474243164,
          37.87542724609375
        ],
        [
          -122.51403045654297,
          37.88444519042969
        ],
        [
          -122.59638214111328,
          37.862022399902344
        ],
        [
          -122.51879119873047,
          37.773521423339844
        ],
        [
          -122.4994888305664,
          37.61162567138672
        ],
        [
          -122.44330596923828,
          37.61556625366211
        ],
        [
          -122.29304504394531,
          37.42402648925781
        ],
        [
          -122.219970703125,
          37.36436462402344
        ],
        [
          -122.13591003417969,
          37.34373092651367
        ],
        [
          -122.08554077148438,
          37.319156646728516
        ],
        [
          -122.06148529052734,
          37.235111236572266
        ],
        [
          -121.99823760986328,
          37.20512390136719
        ],
        [
          -121.93616485595703,
          37.200233459472656
        ],
        [
          -121.89154815673828,
          37.2093505859375
        ],
        [
          -121.82258605957031,
          37.18098068237305
        ],
        [
          -121.70870971679688,
          37.22754669189453
        ],
        [
          -121.73104858398438,
          37.29608917236328
        ],
        [
          -121.77864837646484,
          37.36585235595703
        ],
        [
          -121.82689666748047,
          37.43690872192383
        ],
        [
          -121.89747619628906,
          37.50474548339844
        ],
        [
          -121.91107940673828,
          37.55404281616211
        ],
        [
          -122.01759338378906,
          37.634132385253906
        ],
        [
          -122.005615234375,
          37.686676025390625
        ],
        [
          -122.0538558959961,
          37.72791290283203
        ],
        [
          -122.1629867553711,
          37.809993743896484
        ],
        [
          -122.19827270507812,
          37.86368942260742
        ],
        [
          -122.27852630615234,
          37.9207763671875
        ],
        [
          -122.34510803222656,
          37.90434646606445
        ],
        [
          -122.34474182128906,
          37.85306167602539
        ],
        [
          -122.4508285522461,
          37.8481330871582
        ],
        [
          -122.4970474243164,
          37.87542724609375
        ]
      ]
    ]
  }
}
