{
  "type": "Feature",
  "properties": {},
  "geometry": {
    "type": "Polygon",
    "coordinates": [
      [
        [
          -118.2691586,
          34.1118851
        ],
        [
          -118.2676269,
          34.1109196
        ],
        [
          -118.2645773,
          34.1093312
        ],
        [
          -118.2653885,
          34.1114249
        ],
        [
          -118.2626535,
          34.1099364
        ],
        [
          -118.2598671,
          34.1085013
        ],
        [
          -118.2576728,
          34.1072971
        ],
        [
          -118.2564365,
          34.1064139
        ],
        [
          -118.2545073,
          34.1055524
        ],
        [
          -118.2536986,
          34.1048684
        ],
        [
          -118.25281,
          34.1040458
        ],
        [
          -118.2524141,
          34.1035615
        ],
        [
          -118.2517662,
          34.1030549
        ],
        [
          -118.2510654,
          34.1021173
        ],
        [
          -118.2506285,
          34.1012096
        ],
        [
          -118.250378,
          34.1008658
        ],
        [
          -118.2500104,
          34.0998361
        ],
        [
          -118.2494611,
          34.0998712
        ],
        [
          -118.2487345,
          34.0993711
        ],
        [
          -118.2482027,
          34.098742
        ],
        [
          -118.2461996,
          34.0972527
        ],
        [
          -118.2441318,
          34.0952551
        ],
        [
          -118.2419208,
          34.0929851
        ],
        [
          -118.2399983,
          34.0906893
        ],
        [
          -118.239859,
          34.0894744
        ],
        [
          -118.2410645,
          34.0874647
        ],
        [
          -118.2466793,
          34.080508
        ],
        [
          -118.2441933,
          34.0793505
        ],
        [
          -118.2431089,
          34.0806487
        ],
        [
          -118.2417394,
          34.081161
        ],
        [
          -118.2397285,
          34.0809786
        ],
        [
          -118.2346769,
          34.0793341
        ],
        [
          -118.2324915,
          34.0772712
        ],
        [
          -118.2329918,
          34.0768421
        ],
        [
          -118.231532,
          34.0750297
        ],
        [
          -118.2298114,
          34.0704507
        ],
        [
          -118.2302796,
          34.0700842
        ],
        [
          -118.2272602,
          34.066645
        ],
        [
          -118.2333662,
          34.063251
        ],
        [
          -118.2318701,
          34.0597619
        ],
        [
          -118.2310729,
          34.0569925
        ],
        [
          -118.2314573,
          34.0553255
        ],
        [
          -118.2305949,
          34.0545701
        ],
        [
          -118.2306058,
          34.0535425
        ],
        [
          -118.2288558,
          34.0533058
        ],
        [
          -118.2306488,
          34.0481901
        ],
        [
          -118.2260159,
          34.0258918
        ],
        [
          -118.2294624,
          34.0259462
        ],
        [
          -118.2296488,
          34.0206095
        ],
        [
          -118.2388985,
          34.0230313
        ],
        [
          -118.2390009,
          34.0194277
        ],
        [
          -118.2441234,
          34.0205673
        ],
        [
          -118.2507681,
          34.0240945
        ],
        [
          -118.2571709,
          34.0272274
        ],
        [
          -118.2618135,
          34.0200271
        ],
        [
          -118.2649237,
          34.0152607
        ],
        [
          -118.2648999,
          34.010722
        ],
        [
          -118.2769498,
          34.0107562
        ],
        [
          -118.2777824,
          34.009794
        ],
        [
          -118.2781316,
          34.0035632
        ],
        [
          -118.2865972,
          34.003339
        ],
        [
          -118.3300282,
          34.00325
        ],
        [
          -118.3302213,
          33.99288
        ],
        [
          -118.3302826,
          33.9645892
        ],
        [
          -118.3281185,
          33.9628435
        ],
        [
          -118.3262915,
          33.9617586
        ],
        [
          -118.3262301,
          33.9613231
        ],
        [
          -118.326057,
          33.9450352
        ],
        [
          -118.3347243,
          33.9449912
        ],
        [
          -118.3347305,
          33.9392473
        ],
        [
          -118.3345429,
          33.938636
        ],
        [
          -118.3345935,
          33.9343092
        ],
        [
          -118.3530324,
          33.9342543
        ],
        [
          -118.3548606,
          33.9340252
        ],
        [
          -118.3559638,
          33.9338991
        ],
        [
          -118.3607569,
          33.9325548
        ],
        [
          -118.3607797,
          33.9342908
        ],
        [
          -118.3638704,
          33.934282
        ],
        [
          -118.3638489,
          33.935666
        ],
        [
          -118.3660309,
          33.9356854
        ],
        [
          -118.366052,
          33.9367104
        ],
        [
          -118.3677825,
          33.9366954
        ],
        [
          -118.3677927,
          33.9378884
        ],
        [
          -118.3705598,
          33.9378559
        ],
        [
          -118.3706004,
          33.9445712
        ],
        [
          -118.3865096,
          33.944778
        ],
        [
          -118.3863766,
          33.9520224
        ],
        [
          -118.3901083,
          33.9521747
        ],
        [
          -118.3915814,
          33.9527902
        ],
        [
          -118.3941778,
          33.9541899
        ],
        [
          -118.3957874,
          33.9515347
        ],
        [
          -118.397002,
          33.9514645
        ],
        [
          -118.3985322,
          33.9526898
        ],
        [
          -118.4248082,
          33.9518132
        ],
        [
          -118.4374843,
          33.9515801
        ],
        [
          -118.4394461,
          33.9512906
        ],
        [
          -118.4402352,
          33.9522632
        ],
        [
          -118.4434536,
          33.9513239
        ],
        [
          -118.4443618,
          33.9510259
        ],
        [
          -118.4459145,
          33.951541
        ],
        [
          -118.4471442,
          33.9511321
        ],
        [
          -118.4749642,
          33.985956
        ],
        [
          -118.4979893,
          34.0086082
        ],
        [
          -118.5200578,
          34.0282399
        ],
        [
          -118.5185334,
          34.0300948
        ],
        [
          -118.5195737,
          34.0318048
        ],
        [
          -118.5201367,
          34.0339401
        ],
        [
          -118.5198844,
          34.0353997
        ],
        [
          -118.519025,
          34.0373613
        ],
        [
          -118.5183802,
          34.0396074
        ],
        [
          -118.5190195,
          34.041337
        ],
        [
          -118.517706,
          34.0416976
        ],
        [
          -118.5173397,
          34.0420534
        ],
        [
          -118.5170354,
          34.0433934
        ],
        [
          -118.5168277,
          34.0447335
        ],
        [
          -118.5148917,
          34.0458708
        ],
        [
          -118.5143421,
          34.0455549
        ],
        [
          -118.5137025,
          34.045966
        ],
        [
          -118.513211,
          34.0448824
        ],
        [
          -118.5120758,
          34.0454169
        ],
        [
          -118.5101055,
          34.0457977
        ],
        [
          -118.5097952,
          34.0467478
        ],
        [
          -118.5093892,
          34.0465144
        ],
        [
          -118.5085558,
          34.0467232
        ],
        [
          -118.5068889,
          34.0490432
        ],
        [
          -118.5049906,
          34.0513176
        ],
        [
          -118.504052,
          34.0509706
        ],
        [
          -118.5028451,
          34.0519214
        ],
        [
          -118.5018339,
          34.0521101
        ],
        [
          -118.5004044,
          34.0518455
        ],
        [
          -118.4999056,
          34.0523208
        ],
        [
          -118.4995358,
          34.0526305
        ],
        [
          -118.4992948,
          34.052949
        ],
        [
          -118.498469,
          34.0544809
        ],
        [
          -118.4971948,
          34.0544796
        ],
        [
          -118.4967467,
          34.0551272
        ],
        [
          -118.4958498,
          34.055092
        ],
        [
          -118.4948612,
          34.0551859
        ],
        [
          -118.4933126,
          34.0551529
        ],
        [
          -118.4934775,
          34.0572455
        ],
        [
          -118.4930562,
          34.0587285
        ],
        [
          -118.4918275,
          34.0579436
        ],
        [
          -118.4913369,
          34.0569534
        ],
        [
          -118.4903742,
          34.0567987
        ],
        [
          -118.4894247,
          34.056786
        ],
        [
          -118.4884966,
          34.0570563
        ],
        [
          -118.4857874,
          34.0575044
        ],
        [
          -118.4840813,
          34.0575295
        ],
        [
          -118.4785233,
          34.0586639
        ],
        [
          -118.4704971,
          34.0651309
        ],
        [
          -118.4705713,
          34.0680178
        ],
        [
          -118.4695892,
          34.0705454
        ],
        [
          -118.4683924,
          34.0725932
        ],
        [
          -118.4692771,
          34.0746949
        ],
        [
          -118.4692655,
          34.0751059
        ],
        [
          -118.4685982,
          34.0755878
        ],
        [
          -118.4681685,
          34.0760118
        ],
        [
          -118.4663273,
          34.0737866
        ],
        [
          -118.4636564,
          34.0742977
        ],
        [
          -118.462541,
          34.0734857
        ],
        [
          -118.4618381,
          34.0733521
        ],
        [
          -118.4612648,
          34.0733926
        ],
        [
          -118.4601179,
          34.0740711
        ],
        [
          -118.459434,
          34.0746933
        ],
        [
          -118.4574223,
          34.0745867
        ],
        [
          -118.4548313,
          34.0768616
        ],
        [
          -118.4533988,
          34.0773592
        ],
        [
          -118.4505876,
          34.0760791
        ],
        [
          -118.4488433,
          34.0738948
        ],
        [
          -118.445358,
          34.0741587
        ],
        [
          -118.4448552,
          34.0766975
        ],
        [
          -118.4436139,
          34.0774845
        ],
        [
          -118.4409369,
          34.0778894
        ],
        [
          -118.4399163,
          34.0782643
        ],
        [
          -118.4368755,
          34.0804426
        ],
        [
          -118.4357597,
          34.0812129
        ],
        [
          -118.4349661,
          34.0825128
        ],
        [
          -118.4348308,
          34.0828905
        ],
        [
          -118.434124,
          34.0830921
        ],
        [
          -118.4319916,
          34.082771
        ],
        [
          -118.4308462,
          34.0815967
        ],
        [
          -118.4298359,
          34.0796578
        ],
        [
          -118.4290367,
          34.079508
        ],
        [
          -118.4286643,
          34.0798236
        ],
        [
          -118.4276642,
          34.080848
        ],
        [
          -118.4251971,
          34.081094
        ],
        [
          -118.4222898,
          34.0799196
        ],
        [
          -118.4216731,
          34.0779639
        ],
        [
          -118.4212899,
          34.0774867
        ],
        [
          -118.420756,
          34.0773589
        ],
        [
          -118.4161061,
          34.0795346
        ],
        [
          -118.4146222,
          34.080418
        ],
        [
          -118.4141452,
          34.0811396
        ],
        [
          -118.4138202,
          34.0815448
        ],
        [
          -118.412543,
          34.0816557
        ],
        [
          -118.4081945,
          34.085655
        ],
        [
          -118.4065454,
          34.086609
        ],
        [
          -118.4049509,
          34.0869229
        ],
        [
          -118.4015432,
          34.0870076
        ],
        [
          -118.396988,
          34.0883021
        ],
        [
          -118.3922737,
          34.0907551
        ],
        [
          -118.3839627,
          34.0909398
        ],
        [
          -118.3812062,
          34.092131
        ],
        [
          -118.3766372,
          34.094442
        ],
        [
          -118.3715744,
          34.0962381
        ],
        [
          -118.3679493,
          34.0981585
        ],
        [
          -118.3660858,
          34.0981969
        ],
        [
          -118.3660445,
          34.0993444
        ],
        [
          -118.3656599,
          34.1005097
        ],
        [
          -118.3656503,
          34.1020701
        ],
        [
          -118.3643942,
          34.101489
        ],
        [
          -118.3618952,
          34.101532
        ],
        [
          -118.3592105,
          34.101936
        ],
        [
          -118.3568526,
          34.1019472
        ],
        [
          -118.3573258,
          34.1035962
        ],
        [
          -118.3580131,
          34.1047495
        ],
        [
          -118.3572313,
          34.1048761
        ],
        [
          -118.3564935,
          34.1099852
        ],
        [
          -118.3554362,
          34.1101476
        ],
        [
          -118.3548668,
          34.104076
        ],
        [
          -118.3543706,
          34.1037217
        ],
        [
          -118.353525,
          34.1048908
        ],
        [
          -118.3520856,
          34.1049468
        ],
        [
          -118.3520839,
          34.1063176
        ],
        [
          -118.351358,
          34.1063248
        ],
        [
          -118.3511979,
          34.1052968
        ],
        [
          -118.3500044,
          34.1054514
        ],
        [
          -118.3497821,
          34.1035518
        ],
        [
          -118.349093,
          34.1035667
        ],
        [
          -118.3462538,
          34.103711
        ],
        [
          -118.3463175,
          34.10395
        ],
        [
          -118.344393,
          34.1044532
        ],
        [
          -118.3431352,
          34.1046759
        ],
        [
          -118.3415182,
          34.1046251
        ],
        [
          -118.3386955,
          34.1048851
        ],
        [
          -118.3378487,
          34.1053981
        ],
        [
          -118.3375517,
          34.1079145
        ],
        [
          -118.3375354,
          34.1085026
        ],
        [
          -118.3371758,
          34.109757
        ],
        [
          -118.3344287,
          34.1105668
        ],
        [
          -118.3340246,
          34.111476
        ],
        [
          -118.3325065,
          34.1113143
        ],
        [
          -118.3309098,
          34.1098175
        ],
        [
          -118.330665,
          34.108454
        ],
        [
          -118.3292829,
          34.1075168
        ],
        [
          -118.3274883,
          34.1063355
        ],
        [
          -118.3258552,
          34.105538
        ],
        [
          -118.3243714,
          34.1054385
        ],
        [
          -118.3097895,
          34.1055288
        ],
        [
          -118.3096623,
          34.1078383
        ],
        [
          -118.3058761,
          34.1087051
        ],
        [
          -118.3057805,
          34.1081328
        ],
        [
          -118.3014329,
          34.108917
        ],
        [
          -118.2971562,
          34.1096955
        ],
        [
          -118.2923142,
          34.1107021
        ],
        [
          -118.2919953,
          34.1113244
        ],
        [
          -118.2851595,
          34.1125625
        ],
        [
          -118.2850295,
          34.1120546
        ],
        [
          -118.2819001,
          34.1126669
        ],
        [
          -118.2792046,
          34.1129725
        ],
        [
          -118.27929,
          34.113502
        ],
        [
          -118.2768832,
          34.1140575
        ],
        [
          -118.2767799,
          34.1137064
        ],
        [
          -118.2753462,
          34.1144212
        ],
        [
          -118.2740317,
          34.1140472
        ],
        [
          -118.2729564,
          34.1136612
        ],
        [
          -118.2704258,
          34.1131447
        ],
        [
          -118.2691586,
          34.1118851
        ]
      ]
    ]
  }
}
