{
  "type": "Feature",
  "properties": {
    "provider": "tesla",
    "name": "Houston, TX",
    "source": "tesla_robotaxi_app_fleet_areas",
    "sourceInternalName": "houston",
    "sourcePolygonCount": 1
  },
  "geometry": {
    "type": "Polygon",
    "coordinates": [
      [
        [
          -95.624939,
          29.9172745
        ],
        [
          -95.566925,
          29.8767605
        ],
        [
          -95.524231,
          29.8584766
        ],
        [
          -95.5238266,
          29.9263287
        ],
        [
          -95.5267258,
          29.933773
        ],
        [
          -95.5258865,
          29.9420681
        ],
        [
          -95.5283127,
          29.9481087
        ],
        [
          -95.5403748,
          29.971941
        ],
        [
          -95.5642929,
          29.9675007
        ],
        [
          -95.5644073,
          29.958147
        ],
        [
          -95.5647278,
          29.9475937
        ],
        [
          -95.5742264,
          29.9403362
        ],
        [
          -95.624939,
          29.9172745
        ]
      ]
    ]
  }
}
