{
  "type": "Feature",
  "properties": {
    "slug": "austin",
    "name": "Austin, TX",
    "raw_point_count": 35,
    "bbox": [
      -97.86813354492188,
      30.142719268798828,
      -97.553466796875,
      30.45163345336914
    ],
    "fetched_at": "2026-08-31T13:43:36+00:00",
    "source": "owner-api.robotaxi_fleet_areas",
    "classification": "production_fleet_area_exposed_to_authenticated_riders_account"
  },
  "geometry": {
    "type": "Polygon",
    "coordinates": [
      [
        [
          -97.80895233154297,
          30.247886657714844
        ],
        [
          -97.82378387451172,
          30.238271713256836
        ],
        [
          -97.83769989013672,
          30.243379592895508
        ],
        [
          -97.85225677490234,
          30.223682403564453
        ],
        [
          -97.86091613769531,
          30.213939666748047
        ],
        [
          -97.86813354492188,
          30.2005615234375
        ],
        [
          -97.8598861694336,
          30.18484115600586
        ],
        [
          -97.8251724243164,
          30.169218063354492
        ],
        [
          -97.7688980102539,
          30.152257919311523
        ],
        [
          -97.7311019897461,
          30.142719268798828
        ],
        [
          -97.65213775634766,
          30.14590835571289
        ],
        [
          -97.553466796875,
          30.262102127075195
        ],
        [
          -97.57665252685547,
          30.34709358215332
        ],
        [
          -97.61528015136719,
          30.375688552856445
        ],
        [
          -97.63233947753906,
          30.40184783935547
        ],
        [
          -97.6431884765625,
          30.422239303588867
        ],
        [
          -97.64653015136719,
          30.430082321166992
        ],
        [
          -97.65580749511719,
          30.438566207885742
        ],
        [
          -97.69596862792969,
          30.45136070251465
        ],
        [
          -97.72258758544922,
          30.45163345336914
        ],
        [
          -97.7416763305664,
          30.44677734375
        ],
        [
          -97.77803802490234,
          30.435680389404297
        ],
        [
          -97.7706069946289,
          30.43027687072754
        ],
        [
          -97.75794982910156,
          30.423192977905273
        ],
        [
          -97.75077819824219,
          30.415515899658203
        ],
        [
          -97.75151824951172,
          30.397357940673828
        ],
        [
          -97.75672149658203,
          30.39459228515625
        ],
        [
          -97.76091003417969,
          30.39081382751465
        ],
        [
          -97.78324127197266,
          30.382530212402344
        ],
        [
          -97.79837799072266,
          30.360218048095703
        ],
        [
          -97.81980895996094,
          30.336435317993164
        ],
        [
          -97.8299331665039,
          30.325820922851562
        ],
        [
          -97.8367691040039,
          30.296920776367188
        ],
        [
          -97.8253402709961,
          30.266923904418945
        ],
        [
          -97.80895233154297,
          30.247886657714844
        ]
      ]
    ]
  }
}
